{
"type": "FeatureCollection",
"name": "fire_station",
"crs": { "type": "name", "properties": { "name": "urn:ogc:def:crs:OGC:1.3:CRS84" } },
"features": [
{ "type": "Feature", "properties": { "amenity": "fire_station", "name": null }, "geometry": { "type": "Point", "coordinates": [ 120.995639, 14.5485397 ] } },
{ "type": "Feature", "properties": { "amenity": "fire_station", "name": "Pasay Central Fire Station" }, "geometry": { "type": "Point", "coordinates": [ 121.004251, 14.5493071 ] } },
{ "type": "Feature", "properties": { "amenity": "fire_station", "name": "Donsol Fire Station" }, "geometry": { "type": "Point", "coordinates": [ 123.5968121, 12.9064909 ] } },
{ "type": "Feature", "properties": { "amenity": "fire_station", "name": "Kalibo Fire Station" }, "geometry": { "type": "Point", "coordinates": [ 122.3691453, 11.7007673 ] } },
{ "type": "Feature", "properties": { "amenity": "fire_station", "name": null }, "geometry": { "type": "Point", "coordinates": [ 121.1104635, 14.6511434 ] } },
{ "type": "Feature", "properties": { "amenity": "fire_station", "name": "La Loma Fire Sub-station" }, "geometry": { "type": "Point", "coordinates": [ 120.9946214, 14.6318135 ] } },
{ "type": "Feature", "properties": { "amenity": "fire_station", "name": "Fire Boat 2" }, "geometry": { "type": "Point", "coordinates": [ 121.0854791, 14.58886 ] } },
{ "type": "Feature", "properties": { "amenity": "fire_station", "name": "Baclaran Fire Station" }, "geometry": { "type": "Point", "coordinates": [ 120.997001, 14.53142 ] } },
{ "type": "Feature", "properties": { "amenity": "fire_station", "name": "Makati Fire Station № 9" }, "geometry": { "type": "Point", "coordinates": [ 121.0604525, 14.5627745 ] } },
{ "type": "Feature", "properties": { "amenity": "fire_station", "name": "Hulong Duhat Fire Station" }, "geometry": { "type": "Point", "coordinates": [ 120.9394526, 14.6811798 ] } },
{ "type": "Feature", "properties": { "amenity": "fire_station", "name": "Makati Fire Station 10" }, "geometry": { "type": "Point", "coordinates": [ 121.0651707, 14.5489974 ] } },
{ "type": "Feature", "properties": { "amenity": "fire_station", "name": "Philacor Fire Station" }, "geometry": { "type": "Point", "coordinates": [ 121.039451, 14.455691 ] } },
{ "type": "Feature", "properties": { "amenity": "fire_station", "name": "Meralco Fire Sub-station" }, "geometry": { "type": "Point", "coordinates": [ 121.063478, 14.5791284 ] } },
{ "type": "Feature", "properties": { "amenity": "fire_station", "name": "IBP Fire Sub-Station" }, "geometry": { "type": "Point", "coordinates": [ 121.0958113, 14.694632 ] } },
{ "type": "Feature", "properties": { "amenity": "fire_station", "name": "Kalentong Fire Sub-station" }, "geometry": { "type": "Point", "coordinates": [ 121.0252807, 14.5912522 ] } },
{ "type": "Feature", "properties": { "amenity": "fire_station", "name": "Bf Homes Sub-station" }, "geometry": { "type": "Point", "coordinates": [ 121.019531, 14.732621 ] } },
{ "type": "Feature", "properties": { "amenity": "fire_station", "name": "Galas Fire Sub-station" }, "geometry": { "type": "Point", "coordinates": [ 121.009174, 14.6119732 ] } },
{ "type": "Feature", "properties": { "amenity": "fire_station", "name": "Santolan Substation" }, "geometry": { "type": "Point", "coordinates": [ 121.085956, 14.6176498 ] } },
{ "type": "Feature", "properties": { "amenity": "fire_station", "name": "Makati Fire Sub-station 5" }, "geometry": { "type": "Point", "coordinates": [ 121.0058628, 14.5603234 ] } },
{ "type": "Feature", "properties": { "amenity": "fire_station", "name": "Caloocan City Central Fire Station" }, "geometry": { "type": "Point", "coordinates": [ 120.9746699, 14.657911 ] } },
{ "type": "Feature", "properties": { "amenity": "fire_station", "name": "Taguig Fire Substation" }, "geometry": { "type": "Point", "coordinates": [ 121.070449, 14.528821 ] } },
{ "type": "Feature", "properties": { "amenity": "fire_station", "name": "Dagat-dagatan Sub-station" }, "geometry": { "type": "Point", "coordinates": [ 120.9549312, 14.6466866 ] } },
{ "type": "Feature", "properties": { "amenity": "fire_station", "name": "La Suerte Fire Station" }, "geometry": { "type": "Point", "coordinates": [ 121.0354582, 14.5048555 ] } },
{ "type": "Feature", "properties": { "amenity": "fire_station", "name": "Pillar Village Fire Station" }, "geometry": { "type": "Point", "coordinates": [ 121.00827, 14.416911 ] } },
{ "type": "Feature", "properties": { "amenity": "fire_station", "name": "Mandaluyong Central Fire Station" }, "geometry": { "type": "Point", "coordinates": [ 121.0332281, 14.5772859 ] } },
{ "type": "Feature", "properties": { "amenity": "fire_station", "name": "Malibay Fire Station" }, "geometry": { "type": "Point", "coordinates": [ 121.0097324, 14.533723 ] } },
{ "type": "Feature", "properties": { "amenity": "fire_station", "name": "Bayan Fire Station" }, "geometry": { "type": "Point", "coordinates": [ 120.9511527, 14.6580792 ] } },
{ "type": "Feature", "properties": { "amenity": "fire_station", "name": "La Huerta Fire Station" }, "geometry": { "type": "Point", "coordinates": [ 120.9911445, 14.5008517 ] } },
{ "type": "Feature", "properties": { "amenity": "fire_station", "name": "Manuela Fire Station" }, "geometry": { "type": "Point", "coordinates": [ 120.9750048, 14.4544773 ] } },
{ "type": "Feature", "properties": { "amenity": "fire_station", "name": "Station 6" }, "geometry": { "type": "Point", "coordinates": [ 121.0244561, 14.5719173 ] } },
{ "type": "Feature", "properties": { "amenity": "fire_station", "name": "San Antonio Fire Station" }, "geometry": { "type": "Point", "coordinates": [ 121.0188074, 14.6546927 ] } },
{ "type": "Feature", "properties": { "amenity": "fire_station", "name": "New Bilibid Fire Sub-station" }, "geometry": { "type": "Point", "coordinates": [ 121.0296839, 14.3815255 ] } },
{ "type": "Feature", "properties": { "amenity": "fire_station", "name": "Daang-hari Sub-station" }, "geometry": { "type": "Point", "coordinates": [ 120.941162, 14.66857 ] } },
{ "type": "Feature", "properties": { "amenity": "fire_station", "name": "Bf Fire Sub-station" }, "geometry": { "type": "Point", "coordinates": [ 121.07682, 14.68971 ] } },
{ "type": "Feature", "properties": { "amenity": "fire_station", "name": "Station 1" }, "geometry": { "type": "Point", "coordinates": [ 121.0447903, 14.5605242 ] } },
{ "type": "Feature", "properties": { "amenity": "fire_station", "name": "Fire Chiefs & Fire Fighters Group" }, "geometry": { "type": "Point", "coordinates": [ 121.0215928, 14.6422715 ] } },
{ "type": "Feature", "properties": { "amenity": "fire_station", "name": "Fairview Fire Sub-station" }, "geometry": { "type": "Point", "coordinates": [ 121.0730047, 14.7073576 ] } },
{ "type": "Feature", "properties": { "amenity": "fire_station", "name": null }, "geometry": { "type": "Point", "coordinates": [ 114.0872105, 22.5507971 ] } },
{ "type": "Feature", "properties": { "amenity": "fire_station", "name": "Filipino Chinese Fire Fighter" }, "geometry": { "type": "Point", "coordinates": [ 125.6149703, 7.0768025 ] } },
{ "type": "Feature", "properties": { "amenity": "fire_station", "name": "FCYMAA Fire Station" }, "geometry": { "type": "Point", "coordinates": [ 121.4123422, 14.2852354 ] } },
{ "type": "Feature", "properties": { "amenity": "fire_station", "name": "Pacita Fire Substation" }, "geometry": { "type": "Point", "coordinates": [ 121.0627026, 14.3450154 ] } },
{ "type": "Feature", "properties": { "amenity": "fire_station", "name": "Santa Rosa City Fire Department" }, "geometry": { "type": "Point", "coordinates": [ 121.1105373, 14.315657 ] } },
{ "type": "Feature", "properties": { "amenity": "fire_station", "name": "Mabolo Fire Sub Station" }, "geometry": { "type": "Point", "coordinates": [ 123.9158122, 10.3123991 ] } },
{ "type": "Feature", "properties": { "amenity": "fire_station", "name": "B. F. Home Fire Station" }, "geometry": { "type": "Point", "coordinates": [ 121.0271466, 14.445748 ] } },
{ "type": "Feature", "properties": { "amenity": "fire_station", "name": "Talomo Fire Station" }, "geometry": { "type": "Point", "coordinates": [ 125.5737472, 7.0599013 ] } },
{ "type": "Feature", "properties": { "amenity": "fire_station", "name": "Batong Malake Fire Brigade" }, "geometry": { "type": "Point", "coordinates": [ 121.2418823, 14.1715839 ] } },
{ "type": "Feature", "properties": { "amenity": "fire_station", "name": "Liliw Fire Station" }, "geometry": { "type": "Point", "coordinates": [ 121.4337014, 14.1337532 ] } },
{ "type": "Feature", "properties": { "amenity": "fire_station", "name": "Fire Station" }, "geometry": { "type": "Point", "coordinates": [ 118.7364776, 9.7389287 ] } },
{ "type": "Feature", "properties": { "amenity": "fire_station", "name": "Kawit Fire Station" }, "geometry": { "type": "Point", "coordinates": [ 120.8891923, 14.4357019 ] } },
{ "type": "Feature", "properties": { "amenity": "fire_station", "name": "Balagtas Fire Department" }, "geometry": { "type": "Point", "coordinates": [ 120.9084806, 14.8176111 ] } },
{ "type": "Feature", "properties": { "amenity": "fire_station", "name": "Obando Fire Station" }, "geometry": { "type": "Point", "coordinates": [ 120.9353309, 14.7115331 ] } },
{ "type": "Feature", "properties": { "amenity": "fire_station", "name": "Polo Fire Station" }, "geometry": { "type": "Point", "coordinates": [ 120.9463152, 14.7080322 ] } },
{ "type": "Feature", "properties": { "amenity": "fire_station", "name": "Fire Station" }, "geometry": { "type": "Point", "coordinates": [ 123.7774266, 13.2373038 ] } },
{ "type": "Feature", "properties": { "amenity": "fire_station", "name": null }, "geometry": { "type": "Point", "coordinates": [ 124.357053, 11.6789788 ] } },
{ "type": "Feature", "properties": { "amenity": "fire_station", "name": null }, "geometry": { "type": "Point", "coordinates": [ 120.913777, 13.8840413 ] } },
{ "type": "Feature", "properties": { "amenity": "fire_station", "name": "Kalibo Fire Station" }, "geometry": { "type": "Point", "coordinates": [ 122.3668381, 11.7089666 ] } },
{ "type": "Feature", "properties": { "amenity": "fire_station", "name": "Gen. Trias Fire Station" }, "geometry": { "type": "Point", "coordinates": [ 120.8802797, 14.386832 ] } },
{ "type": "Feature", "properties": { "amenity": "fire_station", "name": "Gen. Trias Fire Sub-Station" }, "geometry": { "type": "Point", "coordinates": [ 120.9027891, 14.3050375 ] } },
{ "type": "Feature", "properties": { "amenity": "fire_station", "name": "Dau FireStation" }, "geometry": { "type": "Point", "coordinates": [ 120.5861192, 15.1817121 ] } },
{ "type": "Feature", "properties": { "amenity": "fire_station", "name": "Amity Volunteer Fire Brigade" }, "geometry": { "type": "Point", "coordinates": [ 122.9566991, 10.6721688 ] } },
{ "type": "Feature", "properties": { "amenity": "fire_station", "name": "Ubujan Fire SubStation" }, "geometry": { "type": "Point", "coordinates": [ 123.8599235, 9.686332 ] } },
{ "type": "Feature", "properties": { "amenity": "fire_station", "name": null }, "geometry": { "type": "Point", "coordinates": [ 122.9563102, 10.6554643 ] } },
{ "type": "Feature", "properties": { "amenity": "fire_station", "name": "Fire Substation" }, "geometry": { "type": "Point", "coordinates": [ 124.6112153, 11.0039556 ] } },
{ "type": "Feature", "properties": { "amenity": "fire_station", "name": "Central Fire Station" }, "geometry": { "type": "Point", "coordinates": [ 124.6056596, 11.012203 ] } },
{ "type": "Feature", "properties": { "amenity": "fire_station", "name": "Siniloan Fire Station" }, "geometry": { "type": "Point", "coordinates": [ 121.4459103, 14.4214378 ] } },
{ "type": "Feature", "properties": { "amenity": "fire_station", "name": "Angeles Fire Station" }, "geometry": { "type": "Point", "coordinates": [ 120.5869337, 15.1373155 ] } },
{ "type": "Feature", "properties": { "amenity": "fire_station", "name": "Telabastagan Fire Station" }, "geometry": { "type": "Point", "coordinates": [ 120.6014176, 15.1201017 ] } },
{ "type": "Feature", "properties": { "amenity": "fire_station", "name": "Santa Maria Fire Station" }, "geometry": { "type": "Point", "coordinates": [ 120.961789, 14.8193586 ] } },
{ "type": "Feature", "properties": { "amenity": "fire_station", "name": "Argao Fire Station" }, "geometry": { "type": "Point", "coordinates": [ 123.6003503, 9.8819987 ] } },
{ "type": "Feature", "properties": { "amenity": "fire_station", "name": "Mendez Fire Station" }, "geometry": { "type": "Point", "coordinates": [ 120.904601, 14.1310844 ] } },
{ "type": "Feature", "properties": { "amenity": "fire_station", "name": "Maragondon Fire Station" }, "geometry": { "type": "Point", "coordinates": [ 120.7357529, 14.2759855 ] } },
{ "type": "Feature", "properties": { "amenity": "fire_station", "name": "Tiaong Fire Station" }, "geometry": { "type": "Point", "coordinates": [ 121.3233318, 13.9587839 ] } },
{ "type": "Feature", "properties": { "amenity": "fire_station", "name": "San Isidro Fire Station" }, "geometry": { "type": "Point", "coordinates": [ 121.1089448, 14.6357497 ] } },
{ "type": "Feature", "properties": { "amenity": "fire_station", "name": "Bureau of Fire Protection" }, "geometry": { "type": "Point", "coordinates": [ 120.7003927, 15.0246499 ] } },
{ "type": "Feature", "properties": { "amenity": "fire_station", "name": "San Fernando Fire Station" }, "geometry": { "type": "Point", "coordinates": [ 120.6941194, 15.0277755 ] } },
{ "type": "Feature", "properties": { "amenity": "fire_station", "name": "尖東消防局 Tsim Tung Fire Station" }, "geometry": { "type": "Point", "coordinates": [ 114.1800318, 22.3004426 ] } },
{ "type": "Feature", "properties": { "amenity": "fire_station", "name": "Alfonso Fire Station" }, "geometry": { "type": "Point", "coordinates": [ 120.8555245, 14.1361964 ] } },
{ "type": "Feature", "properties": { "amenity": "fire_station", "name": "Naic Fire Station" }, "geometry": { "type": "Point", "coordinates": [ 120.771672, 14.322618 ] } },
{ "type": "Feature", "properties": { "amenity": "fire_station", "name": "Silay Fire Station" }, "geometry": { "type": "Point", "coordinates": [ 122.9751568, 10.8012195 ] } },
{ "type": "Feature", "properties": { "amenity": "fire_station", "name": "Minosa Fire Department" }, "geometry": { "type": "Point", "coordinates": [ 120.5201098, 15.1825866 ] } },
{ "type": "Feature", "properties": { "amenity": "fire_station", "name": "Rodriguez Fire Station" }, "geometry": { "type": "Point", "coordinates": [ 121.136483, 14.7305211 ] } },
{ "type": "Feature", "properties": { "amenity": "fire_station", "name": "Surigao City Fire Station" }, "geometry": { "type": "Point", "coordinates": [ 125.4937392, 9.7920423 ] } },
{ "type": "Feature", "properties": { "amenity": "fire_station", "name": "Lucena City PNR Fire Sub-Station" }, "geometry": { "type": "Point", "coordinates": [ 121.6131138, 13.9272044 ] } },
{ "type": "Feature", "properties": { "amenity": "fire_station", "name": "Arayat Fire Station" }, "geometry": { "type": "Point", "coordinates": [ 120.7714876, 15.1540045 ] } },
{ "type": "Feature", "properties": { "amenity": "fire_station", "name": "Catarman Fire Department" }, "geometry": { "type": "Point", "coordinates": [ 124.6375526, 12.4995773 ] } },
{ "type": "Feature", "properties": { "amenity": "fire_station", "name": null }, "geometry": { "type": "Point", "coordinates": [ 118.7479367, 9.7628464 ] } },
{ "type": "Feature", "properties": { "amenity": "fire_station", "name": "Vigan City Fire Station" }, "geometry": { "type": "Point", "coordinates": [ 120.3867489, 17.5747748 ] } },
{ "type": "Feature", "properties": { "amenity": "fire_station", "name": "Quezon City Fil-Chi Volunteer Fire Brigade Ass'n." }, "geometry": { "type": "Point", "coordinates": [ 121.0177193, 14.615719 ] } },
{ "type": "Feature", "properties": { "amenity": "fire_station", "name": "Victoria Fire Station" }, "geometry": { "type": "Point", "coordinates": [ 121.3285306, 14.227836 ] } },
{ "type": "Feature", "properties": { "amenity": "fire_station", "name": "Davao Volunteer Fire Brigade" }, "geometry": { "type": "Point", "coordinates": [ 125.6241376, 7.0757916 ] } },
{ "type": "Feature", "properties": { "amenity": "fire_station", "name": "Toril Fire Station" }, "geometry": { "type": "Point", "coordinates": [ 125.4991508, 7.0191379 ] } },
{ "type": "Feature", "properties": { "amenity": "fire_station", "name": null }, "geometry": { "type": "Point", "coordinates": [ 120.4612631, 14.8666738 ] } },
{ "type": "Feature", "properties": { "amenity": "fire_station", "name": "Pagsanjan Fire Station" }, "geometry": { "type": "Point", "coordinates": [ 121.455856, 14.272319 ] } },
{ "type": "Feature", "properties": { "amenity": "fire_station", "name": "LISP 2 Fire Station" }, "geometry": { "type": "Point", "coordinates": [ 121.146796, 14.1928439 ] } },
{ "type": "Feature", "properties": { "amenity": "fire_station", "name": null }, "geometry": { "type": "Point", "coordinates": [ 125.7083106, 7.5849299 ] } },
{ "type": "Feature", "properties": { "amenity": "fire_station", "name": "Majayjay Fire Station" }, "geometry": { "type": "Point", "coordinates": [ 121.470557, 14.1468588 ] } },
{ "type": "Feature", "properties": { "amenity": "fire_station", "name": "Hagonoy Fire Station" }, "geometry": { "type": "Point", "coordinates": [ 120.7340739, 14.8358016 ] } },
{ "type": "Feature", "properties": { "amenity": "fire_station", "name": "Pateros Fire Station" }, "geometry": { "type": "Point", "coordinates": [ 121.0735289, 14.5516358 ] } },
{ "type": "Feature", "properties": { "amenity": "fire_station", "name": "Buru-On Fire Sub Station" }, "geometry": { "type": "Point", "coordinates": [ 124.1687591, 8.18739 ] } },
{ "type": "Feature", "properties": { "amenity": "fire_station", "name": "Dapitan City Fire Station" }, "geometry": { "type": "Point", "coordinates": [ 123.4220384, 8.659483 ] } },
{ "type": "Feature", "properties": { "amenity": "fire_station", "name": "Cabadbaran City Fire Department" }, "geometry": { "type": "Point", "coordinates": [ 125.5345418, 9.120628 ] } },
{ "type": "Feature", "properties": { "amenity": "fire_station", "name": "Fire Station" }, "geometry": { "type": "Point", "coordinates": [ 120.9093054, 15.3367389 ] } },
{ "type": "Feature", "properties": { "amenity": "fire_station", "name": "Plaridel Fire Station" }, "geometry": { "type": "Point", "coordinates": [ 123.7238437, 8.608101 ] } },
{ "type": "Feature", "properties": { "amenity": "fire_station", "name": "murcia fire department" }, "geometry": { "type": "Point", "coordinates": [ 123.0403079, 10.6059237 ] } },
{ "type": "Feature", "properties": { "amenity": "fire_station", "name": "brgy. panghulo fire station" }, "geometry": { "type": "Point", "coordinates": [ 120.9563973, 14.6860944 ] } },
{ "type": "Feature", "properties": { "amenity": "fire_station", "name": "Cabanatuan City Fire Department" }, "geometry": { "type": "Point", "coordinates": [ 120.9427965, 15.4446626 ] } },
{ "type": "Feature", "properties": { "amenity": "fire_station", "name": "Malaybalay City Fire Station" }, "geometry": { "type": "Point", "coordinates": [ 125.1276274, 8.1537044 ] } },
{ "type": "Feature", "properties": { "amenity": "fire_station", "name": "舂坎角消防局 Chung Hom Kok Fire Station" }, "geometry": { "type": "Point", "coordinates": [ 114.203507, 22.2201355 ] } },
{ "type": "Feature", "properties": { "amenity": "fire_station", "name": "Angat Fire Station" }, "geometry": { "type": "Point", "coordinates": [ 121.0284512, 14.9193789 ] } },
{ "type": "Feature", "properties": { "amenity": "fire_station", "name": "General Mariano Alvarez Fire Department" }, "geometry": { "type": "Point", "coordinates": [ 121.0070371, 14.2959288 ] } },
{ "type": "Feature", "properties": { "amenity": "fire_station", "name": "Makilala Fire Station" }, "geometry": { "type": "Point", "coordinates": [ 125.0885104, 6.9592516 ] } },
{ "type": "Feature", "properties": { "amenity": "fire_station", "name": "Pikit Fire Station" }, "geometry": { "type": "Point", "coordinates": [ 124.6773579, 7.057465 ] } },
{ "type": "Feature", "properties": { "amenity": "fire_station", "name": "Midsayap Fire Station" }, "geometry": { "type": "Point", "coordinates": [ 124.5324445, 7.1891527 ] } },
{ "type": "Feature", "properties": { "amenity": "fire_station", "name": "Cotabato Filipino - Chinese Volunteer Fire Brigade" }, "geometry": { "type": "Point", "coordinates": [ 124.2508405, 7.2234487 ] } },
{ "type": "Feature", "properties": { "amenity": "fire_station", "name": null }, "geometry": { "type": "Point", "coordinates": [ 121.0691774, 12.3528961 ] } },
{ "type": "Feature", "properties": { "amenity": "fire_station", "name": "PHILPHOS Fire Station" }, "geometry": { "type": "Point", "coordinates": [ 124.4339214, 10.8994501 ] } },
{ "type": "Feature", "properties": { "amenity": "fire_station", "name": "Floridablanca Fire Station" }, "geometry": { "type": "Point", "coordinates": [ 120.5282119, 14.9748749 ] } },
{ "type": "Feature", "properties": { "amenity": "fire_station", "name": null }, "geometry": { "type": "Point", "coordinates": [ 124.2365331, 8.2286863 ] } },
{ "type": "Feature", "properties": { "amenity": "fire_station", "name": "Kaputian Fire Station" }, "geometry": { "type": "Point", "coordinates": [ 125.7253155, 6.9656628 ] } },
{ "type": "Feature", "properties": { "amenity": "fire_station", "name": null }, "geometry": { "type": "Point", "coordinates": [ 123.8550732, 9.6392316 ] } },
{ "type": "Feature", "properties": { "amenity": "fire_station", "name": null }, "geometry": { "type": "Point", "coordinates": [ 120.9995388, 14.4764829 ] } },
{ "type": "Feature", "properties": { "amenity": "fire_station", "name": "Bureau of Fire Protection;BFP Regional Office 2" }, "geometry": { "type": "Point", "coordinates": [ 121.7239513, 17.6227645 ] } },
{ "type": "Feature", "properties": { "amenity": "fire_station", "name": "Fire Department" }, "geometry": { "type": "Point", "coordinates": [ 120.5704622, 15.2900948 ] } },
{ "type": "Feature", "properties": { "amenity": "fire_station", "name": "Muñoz Fire Station" }, "geometry": { "type": "Point", "coordinates": [ 120.9035337, 15.7132853 ] } },
{ "type": "Feature", "properties": { "amenity": "fire_station", "name": "Santa Mesa Fire Station" }, "geometry": { "type": "Point", "coordinates": [ 121.0085212, 14.6017112 ] } },
{ "type": "Feature", "properties": { "amenity": "fire_station", "name": null }, "geometry": { "type": "Point", "coordinates": [ 124.45777, 6.833136 ] } },
{ "type": "Feature", "properties": { "amenity": "fire_station", "name": "Tubigon Fire Station" }, "geometry": { "type": "Point", "coordinates": [ 123.9606353, 9.9443436 ] } },
{ "type": "Feature", "properties": { "amenity": "fire_station", "name": "Dagupan City Fire Station" }, "geometry": { "type": "Point", "coordinates": [ 120.3421121, 16.0412753 ] } },
{ "type": "Feature", "properties": { "amenity": "fire_station", "name": "Morong Fire Station" }, "geometry": { "type": "Point", "coordinates": [ 121.2368936, 14.5065764 ] } },
{ "type": "Feature", "properties": { "amenity": "fire_station", "name": "Kidapawan City Fire Station" }, "geometry": { "type": "Point", "coordinates": [ 125.0919042, 7.008235 ] } },
{ "type": "Feature", "properties": { "amenity": "fire_station", "name": "Balai Bomba dan Penyelamat Sandakan" }, "geometry": { "type": "Point", "coordinates": [ 118.0923608, 5.8644986 ] } },
{ "type": "Feature", "properties": { "amenity": "fire_station", "name": null }, "geometry": { "type": "Point", "coordinates": [ 124.8441944, 6.5017652 ] } },
{ "type": "Feature", "properties": { "amenity": "fire_station", "name": "Granada Fire Station" }, "geometry": { "type": "Point", "coordinates": [ 123.0339951, 10.6662422 ] } },
{ "type": "Feature", "properties": { "amenity": "fire_station", "name": "Manaoag Fire Station" }, "geometry": { "type": "Point", "coordinates": [ 120.48669, 16.0437 ] } },
{ "type": "Feature", "properties": { "amenity": "fire_station", "name": null }, "geometry": { "type": "Point", "coordinates": [ 124.6518009, 8.4835965 ] } },
{ "type": "Feature", "properties": { "amenity": "fire_station", "name": "Cogon Fire Station" }, "geometry": { "type": "Point", "coordinates": [ 124.6512133, 8.4791457 ] } },
{ "type": "Feature", "properties": { "amenity": "fire_station", "name": "Sanchez Mira Fire Station" }, "geometry": { "type": "Point", "coordinates": [ 121.2343453, 18.5605956 ] } },
{ "type": "Feature", "properties": { "amenity": "fire_station", "name": "Roxas Fire Station" }, "geometry": { "type": "Point", "coordinates": [ 122.7552207, 11.5849835 ] } },
{ "type": "Feature", "properties": { "amenity": "fire_station", "name": null }, "geometry": { "type": "Point", "coordinates": [ 121.0323812, 14.6818313 ] } },
{ "type": "Feature", "properties": { "amenity": "fire_station", "name": "灣裡消防分隊" }, "geometry": { "type": "Point", "coordinates": [ 120.1814106, 22.9327957 ] } },
{ "type": "Feature", "properties": { "amenity": "fire_station", "name": "Jamindan Fire Brigade" }, "geometry": { "type": "Point", "coordinates": [ 122.5093174, 11.4096339 ] } },
{ "type": "Feature", "properties": { "amenity": "fire_station", "name": "機場消防隊海上救援西局 Airport Fire Contingent West Sea Rescue Berth" }, "geometry": { "type": "Point", "coordinates": [ 113.8971141, 22.3046277 ] } },
{ "type": "Feature", "properties": { "amenity": "fire_station", "name": "initao fire station" }, "geometry": { "type": "Point", "coordinates": [ 124.3034823, 8.4969475 ] } },
{ "type": "Feature", "properties": { "amenity": "fire_station", "name": "Naawan Fire Station" }, "geometry": { "type": "Point", "coordinates": [ 124.2900031, 8.4338582 ] } },
{ "type": "Feature", "properties": { "amenity": "fire_station", "name": "Cabuyao Fire Station" }, "geometry": { "type": "Point", "coordinates": [ 121.1245404, 14.2713802 ] } },
{ "type": "Feature", "properties": { "amenity": "fire_station", "name": "Lugait Fire Station" }, "geometry": { "type": "Point", "coordinates": [ 124.2593063, 8.3426159 ] } },
{ "type": "Feature", "properties": { "amenity": "fire_station", "name": null }, "geometry": { "type": "Point", "coordinates": [ 125.0634476, 6.2209423 ] } },
{ "type": "Feature", "properties": { "amenity": "fire_station", "name": "Bureau of Fire Protection" }, "geometry": { "type": "Point", "coordinates": [ 125.298179, 6.6881788 ] } },
{ "type": "Feature", "properties": { "amenity": "fire_station", "name": "Tetuan Fire Station" }, "geometry": { "type": "Point", "coordinates": [ 122.0908791, 6.9175401 ] } },
{ "type": "Feature", "properties": { "amenity": "fire_station", "name": "Guiwan Fire Station" }, "geometry": { "type": "Point", "coordinates": [ 122.0919932, 6.9287677 ] } },
{ "type": "Feature", "properties": { "amenity": "fire_station", "name": "高雄市消防局綜合大樓" }, "geometry": { "type": "Point", "coordinates": [ 120.3069512, 22.5930738 ] } },
{ "type": "Feature", "properties": { "amenity": "fire_station", "name": "田贝中队" }, "geometry": { "type": "Point", "coordinates": [ 114.1215895, 22.5663555 ] } },
{ "type": "Feature", "properties": { "amenity": "fire_station", "name": "高雄港消防局" }, "geometry": { "type": "Point", "coordinates": [ 120.2773499, 22.6198009 ] } },
{ "type": "Feature", "properties": { "amenity": "fire_station", "name": "Malolos Fire Station" }, "geometry": { "type": "Point", "coordinates": [ 120.8206868, 14.8643873 ] } },
{ "type": "Feature", "properties": { "amenity": "fire_station", "name": "Pastrana Fire Station" }, "geometry": { "type": "Point", "coordinates": [ 124.8867044, 11.136636 ] } },
{ "type": "Feature", "properties": { "amenity": "fire_station", "name": "Bangar Fire Station" }, "geometry": { "type": "Point", "coordinates": [ 120.4240359, 16.8942078 ] } },
{ "type": "Feature", "properties": { "amenity": "fire_station", "name": "Digos City Fire Station" }, "geometry": { "type": "Point", "coordinates": [ 125.3563927, 6.744834 ] } },
{ "type": "Feature", "properties": { "amenity": "fire_station", "name": null }, "geometry": { "type": "Point", "coordinates": [ 120.5912868, 16.4123246 ] } },
{ "type": "Feature", "properties": { "amenity": "fire_station", "name": "New Bataan Fire Station" }, "geometry": { "type": "Point", "coordinates": [ 126.1370669, 7.5507767 ] } },
{ "type": "Feature", "properties": { "amenity": "fire_station", "name": "Candelaria Fire Station" }, "geometry": { "type": "Point", "coordinates": [ 119.9317765, 15.6265949 ] } },
{ "type": "Feature", "properties": { "amenity": "fire_station", "name": "Bureau of Fire Protection" }, "geometry": { "type": "Point", "coordinates": [ 125.9798674, 9.3340114 ] } },
{ "type": "Feature", "properties": { "amenity": "fire_station", "name": "Techno Park" }, "geometry": { "type": "Point", "coordinates": [ 121.0575129, 14.2614118 ] } },
{ "type": "Feature", "properties": { "amenity": "fire_station", "name": "Subic Fire Station" }, "geometry": { "type": "Point", "coordinates": [ 120.2342044, 14.8769481 ] } },
{ "type": "Feature", "properties": { "amenity": "fire_station", "name": "Tagkawayan Fire Station" }, "geometry": { "type": "Point", "coordinates": [ 122.538518, 13.9636225 ] } },
{ "type": "Feature", "properties": { "amenity": "fire_station", "name": null }, "geometry": { "type": "Point", "coordinates": [ 121.3425679, 13.9944853 ] } },
{ "type": "Feature", "properties": { "amenity": "fire_station", "name": "Aluba Fire Station" }, "geometry": { "type": "Point", "coordinates": [ 124.6463517, 8.455873 ] } },
{ "type": "Feature", "properties": { "amenity": "fire_station", "name": "Arranque Fire Brigade" }, "geometry": { "type": "Point", "coordinates": [ 120.9779249, 14.602565 ] } },
{ "type": "Feature", "properties": { "amenity": "fire_station", "name": "Balai Bomba Berakas" }, "geometry": { "type": "Point", "coordinates": [ 114.9325185, 4.9251283 ] } },
{ "type": "Feature", "properties": { "amenity": "fire_station", "name": "Unit Operasi Wanita" }, "geometry": { "type": "Point", "coordinates": [ 114.932658, 4.9254329 ] } },
{ "type": "Feature", "properties": { "amenity": "fire_station", "name": "Lambak Kanan Fire Station" }, "geometry": { "type": "Point", "coordinates": [ 114.9652737, 4.9728486 ] } },
{ "type": "Feature", "properties": { "amenity": "fire_station", "name": "Bancasi Butuan Airport Fire Station" }, "geometry": { "type": "Point", "coordinates": [ 125.480537, 8.9487805 ] } },
{ "type": "Feature", "properties": { "amenity": "fire_station", "name": null }, "geometry": { "type": "Point", "coordinates": [ 123.3422505, 8.589996 ] } },
{ "type": "Feature", "properties": { "amenity": "fire_station", "name": "Antipolo City Fire Department" }, "geometry": { "type": "Point", "coordinates": [ 121.1759819, 14.5838617 ] } },
{ "type": "Feature", "properties": { "amenity": "fire_station", "name": "Cauayan Airport Fire & Rescue" }, "geometry": { "type": "Point", "coordinates": [ 121.753605, 16.9275105 ] } },
{ "type": "Feature", "properties": { "amenity": "fire_station", "name": "New Millenium Fire & Rescue Volunteers Assoc., Inc." }, "geometry": { "type": "Point", "coordinates": [ 121.003288, 14.6355699 ] } },
{ "type": "Feature", "properties": { "amenity": "fire_station", "name": "Balai Bomba dan Penyelamat Daerah Tuaran" }, "geometry": { "type": "Point", "coordinates": [ 116.2343009, 6.1786944 ] } },
{ "type": "Feature", "properties": { "amenity": "fire_station", "name": "Virac Airport Fire Station" }, "geometry": { "type": "Point", "coordinates": [ 124.2117715, 13.579024 ] } },
{ "type": "Feature", "properties": { "amenity": "fire_station", "name": "Bomba Dan Penyelamat" }, "geometry": { "type": "Point", "coordinates": [ 116.0649134, 5.9616511 ] } },
{ "type": "Feature", "properties": { "amenity": "fire_station", "name": "Old Paranaque Fire Volunteer" }, "geometry": { "type": "Point", "coordinates": [ 120.9957056, 14.5132165 ] } },
{ "type": "Feature", "properties": { "amenity": "fire_station", "name": "中區滅火輪消防局 Central Fireboat Station" }, "geometry": { "type": "Point", "coordinates": [ 114.1557176, 22.2886068 ] } },
{ "type": "Feature", "properties": { "amenity": "fire_station", "name": null }, "geometry": { "type": "Point", "coordinates": [ 121.2185523, 16.6510239 ] } },
{ "type": "Feature", "properties": { "amenity": "fire_station", "name": "Bato Fire Station" }, "geometry": { "type": "Point", "coordinates": [ 124.2972537, 13.6097594 ] } },
{ "type": "Feature", "properties": { "amenity": "fire_station", "name": "San Andres Fire Station" }, "geometry": { "type": "Point", "coordinates": [ 124.0980405, 13.5988774 ] } },
{ "type": "Feature", "properties": { "amenity": "fire_station", "name": "Virac Fire Station" }, "geometry": { "type": "Point", "coordinates": [ 124.2364962, 13.5847565 ] } },
{ "type": "Feature", "properties": { "amenity": "fire_station", "name": null }, "geometry": { "type": "Point", "coordinates": [ 122.4775917, 10.6915873 ] } },
{ "type": "Feature", "properties": { "amenity": "fire_station", "name": "Bureau of Fire Protection" }, "geometry": { "type": "Point", "coordinates": [ 125.0383229, 11.0634227 ] } },
{ "type": "Feature", "properties": { "amenity": "fire_station", "name": "Guinobatan Fire Station" }, "geometry": { "type": "Point", "coordinates": [ 123.5991358, 13.1915623 ] } },
{ "type": "Feature", "properties": { "amenity": "fire_station", "name": "Pigcawayan Bureau Of Fire Protection" }, "geometry": { "type": "Point", "coordinates": [ 124.4246228, 7.2775725 ] } },
{ "type": "Feature", "properties": { "amenity": "fire_station", "name": "Balanga City Fire Station" }, "geometry": { "type": "Point", "coordinates": [ 120.5335995, 14.6731043 ] } },
{ "type": "Feature", "properties": { "amenity": "fire_station", "name": null }, "geometry": { "type": "Point", "coordinates": [ 120.5945141, 14.5624008 ] } },
{ "type": "Feature", "properties": { "amenity": "fire_station", "name": "Jabatan Bomba dan Penyelamat Limbang" }, "geometry": { "type": "Point", "coordinates": [ 115.014872, 4.7608228 ] } },
{ "type": "Feature", "properties": { "amenity": "fire_station", "name": "Calauan Fire Station" }, "geometry": { "type": "Point", "coordinates": [ 121.3148062, 14.1466096 ] } },
{ "type": "Feature", "properties": { "amenity": "fire_station", "name": "第一救災救護大隊" }, "geometry": { "type": "Point", "coordinates": [ 120.3305804, 22.6227057 ] } },
{ "type": "Feature", "properties": { "amenity": "fire_station", "name": "第一中隊" }, "geometry": { "type": "Point", "coordinates": [ 120.3112204, 22.6305313 ] } },
{ "type": "Feature", "properties": { "amenity": "fire_station", "name": null }, "geometry": { "type": "Point", "coordinates": [ 125.0511654, 10.2979891 ] } },
{ "type": "Feature", "properties": { "amenity": "fire_station", "name": "Bontoc Central Fire Station" }, "geometry": { "type": "Point", "coordinates": [ 120.9781149, 17.0879244 ] } },
{ "type": "Feature", "properties": { "amenity": "fire_station", "name": null }, "geometry": { "type": "Point", "coordinates": [ 120.6335094, 22.5921786 ] } },
{ "type": "Feature", "properties": { "amenity": "fire_station", "name": "Santa Cruz Fire Brigade" }, "geometry": { "type": "Point", "coordinates": [ 120.9804456, 14.6016045 ] } },
{ "type": "Feature", "properties": { "amenity": "fire_station", "name": "LISP Fire Station" }, "geometry": { "type": "Point", "coordinates": [ 121.1010985, 14.2386286 ] } },
{ "type": "Feature", "properties": { "amenity": "fire_station", "name": "Dagupan Panda Fire Volunteer" }, "geometry": { "type": "Point", "coordinates": [ 120.3499997, 16.0462217 ] } },
{ "type": "Feature", "properties": { "amenity": "fire_station", "name": "Toledo City Fire Department" }, "geometry": { "type": "Point", "coordinates": [ 123.6342791, 10.3753546 ] } },
{ "type": "Feature", "properties": { "amenity": "fire_station", "name": "Filipino-Chinese Volunteer Fire Brigade" }, "geometry": { "type": "Point", "coordinates": [ 123.2949706, 9.3176061 ] } },
{ "type": "Feature", "properties": { "amenity": "fire_station", "name": "La Carlota Fire Station" }, "geometry": { "type": "Point", "coordinates": [ 122.9213959, 10.4271319 ] } },
{ "type": "Feature", "properties": { "amenity": "fire_station", "name": "Apas Fire Sub Station" }, "geometry": { "type": "Point", "coordinates": [ 123.9050199, 10.3371236 ] } },
{ "type": "Feature", "properties": { "amenity": "fire_station", "name": "中庄分隊" }, "geometry": { "type": "Point", "coordinates": [ 120.3967165, 22.6324193 ] } },
{ "type": "Feature", "properties": { "amenity": "fire_station", "name": "五甲分隊" }, "geometry": { "type": "Point", "coordinates": [ 120.3344948, 22.5979387 ] } },
{ "type": "Feature", "properties": { "amenity": "fire_station", "name": "前金分隊" }, "geometry": { "type": "Point", "coordinates": [ 120.2942974, 22.6286204 ] } },
{ "type": "Feature", "properties": { "amenity": "fire_station", "name": "前鎮分隊" }, "geometry": { "type": "Point", "coordinates": [ 120.3191386, 22.5866157 ] } },
{ "type": "Feature", "properties": { "amenity": "fire_station", "name": "十全分隊" }, "geometry": { "type": "Point", "coordinates": [ 120.3113695, 22.6449961 ] } },
{ "type": "Feature", "properties": { "amenity": "fire_station", "name": "右昌分隊" }, "geometry": { "type": "Point", "coordinates": [ 120.2917649, 22.7177155 ] } },
{ "type": "Feature", "properties": { "amenity": "fire_station", "name": "大昌分隊" }, "geometry": { "type": "Point", "coordinates": [ 120.3249632, 22.6493721 ] } },
{ "type": "Feature", "properties": { "amenity": "fire_station", "name": "大林分隊" }, "geometry": { "type": "Point", "coordinates": [ 120.3462105, 22.5270884 ] } },
{ "type": "Feature", "properties": { "amenity": "fire_station", "name": "大樹分隊" }, "geometry": { "type": "Point", "coordinates": [ 120.4325674, 22.6950933 ] } },
{ "type": "Feature", "properties": { "amenity": "fire_station", "name": "小港分隊" }, "geometry": { "type": "Point", "coordinates": [ 120.3363487, 22.5629119 ] } },
{ "type": "Feature", "properties": { "amenity": "fire_station", "name": "岡山分隊" }, "geometry": { "type": "Point", "coordinates": [ 120.2943424, 22.7962972 ] } },
{ "type": "Feature", "properties": { "amenity": "fire_station", "name": "崇德小隊" }, "geometry": { "type": "Point", "coordinates": [ 120.3825306, 22.8774266 ] } },
{ "type": "Feature", "properties": { "amenity": "fire_station", "name": "成功分隊" }, "geometry": { "type": "Point", "coordinates": [ 120.2984724, 22.5950864 ] } },
{ "type": "Feature", "properties": { "amenity": "fire_station", "name": "新興分隊" }, "geometry": { "type": "Point", "coordinates": [ 120.3114907, 22.6305319 ] } },
{ "type": "Feature", "properties": { "amenity": "fire_station", "name": "旗山分隊" }, "geometry": { "type": "Point", "coordinates": [ 120.4835302, 22.8883105 ] } },
{ "type": "Feature", "properties": { "amenity": "fire_station", "name": "林園分隊" }, "geometry": { "type": "Point", "coordinates": [ 120.3944781, 22.5083851 ] } },
{ "type": "Feature", "properties": { "amenity": "fire_station", "name": "梓官分隊" }, "geometry": { "type": "Point", "coordinates": [ 120.2629079, 22.7604622 ] } },
{ "type": "Feature", "properties": { "amenity": "fire_station", "name": "橋頭分隊" }, "geometry": { "type": "Point", "coordinates": [ 120.2967552, 22.7414673 ] } },
{ "type": "Feature", "properties": { "amenity": "fire_station", "name": "永安分隊" }, "geometry": { "type": "Point", "coordinates": [ 120.2364622, 22.8235171 ] } },
{ "type": "Feature", "properties": { "amenity": "fire_station", "name": "湖內分隊" }, "geometry": { "type": "Point", "coordinates": [ 120.212702, 22.9085187 ] } },
{ "type": "Feature", "properties": { "amenity": "fire_station", "name": "特搜中隊" }, "geometry": { "type": "Point", "coordinates": [ 120.3217593, 22.7340713 ] } },
{ "type": "Feature", "properties": { "amenity": "fire_station", "name": "瑞隆分隊" }, "geometry": { "type": "Point", "coordinates": [ 120.325728, 22.6002861 ] } },
{ "type": "Feature", "properties": { "amenity": "fire_station", "name": "田寮分隊" }, "geometry": { "type": "Point", "coordinates": [ 120.4057274, 22.8249324 ] } },
{ "type": "Feature", "properties": { "amenity": "fire_station", "name": "美濃分隊" }, "geometry": { "type": "Point", "coordinates": [ 120.5423533, 22.9007851 ] } },
{ "type": "Feature", "properties": { "amenity": "fire_station", "name": "苓雅分隊" }, "geometry": { "type": "Point", "coordinates": [ 120.3306336, 22.6226906 ] } },
{ "type": "Feature", "properties": { "amenity": "fire_station", "name": "茂林分隊" }, "geometry": { "type": "Point", "coordinates": [ 120.6632809, 22.8862518 ] } },
{ "type": "Feature", "properties": { "amenity": "fire_station", "name": "茄萣分隊" }, "geometry": { "type": "Point", "coordinates": [ 120.1832613, 22.9036838 ] } },
{ "type": "Feature", "properties": { "amenity": "fire_station", "name": "阿蓮分隊" }, "geometry": { "type": "Point", "coordinates": [ 120.3288691, 22.8789562 ] } },
{ "type": "Feature", "properties": { "amenity": "fire_station", "name": "高桂分隊" }, "geometry": { "type": "Point", "coordinates": [ 120.3706671, 22.5623013 ] } },
{ "type": "Feature", "properties": { "amenity": "fire_station", "name": "鳳山分隊" }, "geometry": { "type": "Point", "coordinates": [ 120.3628937, 22.6274936 ] } },
{ "type": "Feature", "properties": { "amenity": "fire_station", "name": "鳳祥分隊" }, "geometry": { "type": "Point", "coordinates": [ 120.3609603, 22.5990709 ] } },
{ "type": "Feature", "properties": { "amenity": "fire_station", "name": "鼎金分隊" }, "geometry": { "type": "Point", "coordinates": [ 120.3216015, 22.6668478 ] } },
{ "type": "Feature", "properties": { "amenity": "fire_station", "name": "鼓山分隊" }, "geometry": { "type": "Point", "coordinates": [ 120.27547, 22.623226 ] } },
{ "type": "Feature", "properties": { "amenity": "fire_station", "name": "Subic Fire Station" }, "geometry": { "type": "Point", "coordinates": [ 120.2354692, 14.8688618 ] } },
{ "type": "Feature", "properties": { "amenity": "fire_station", "name": "灣仔消防局 Wan Chai Fire Station" }, "geometry": { "type": "Point", "coordinates": [ 114.1813722, 22.2797126 ] } },
{ "type": "Feature", "properties": { "amenity": "fire_station", "name": "Silang Fire Station" }, "geometry": { "type": "Point", "coordinates": [ 120.9717661, 14.2225063 ] } },
{ "type": "Feature", "properties": { "amenity": "fire_station", "name": "Candiajy Fire station" }, "geometry": { "type": "Point", "coordinates": [ 124.4965939, 9.8187484 ] } },
{ "type": "Feature", "properties": { "amenity": "fire_station", "name": "Calumpit Fire Station" }, "geometry": { "type": "Point", "coordinates": [ 120.7646369, 14.9146374 ] } },
{ "type": "Feature", "properties": { "amenity": "fire_station", "name": "Manocmanoc Fire Station" }, "geometry": { "type": "Point", "coordinates": [ 121.9422338, 11.9495758 ] } },
{ "type": "Feature", "properties": { "amenity": "fire_station", "name": "Mati Fire Station" }, "geometry": { "type": "Point", "coordinates": [ 126.2169018, 6.9518622 ] } },
{ "type": "Feature", "properties": { "amenity": "fire_station", "name": "Los Baños Fire Station" }, "geometry": { "type": "Point", "coordinates": [ 121.2244432, 14.1819723 ] } },
{ "type": "Feature", "properties": { "amenity": "fire_station", "name": "IRRI Emergency Brigade" }, "geometry": { "type": "Point", "coordinates": [ 121.2579753, 14.1711956 ] } },
{ "type": "Feature", "properties": { "amenity": "fire_station", "name": "Don Carlos Fire Station" }, "geometry": { "type": "Point", "coordinates": [ 124.9917149, 7.6812613 ] } },
{ "type": "Feature", "properties": { "amenity": "fire_station", "name": "Claver Fire Station" }, "geometry": { "type": "Point", "coordinates": [ 125.7326116, 9.5727346 ] } },
{ "type": "Feature", "properties": { "amenity": "fire_station", "name": "Fire Station" }, "geometry": { "type": "Point", "coordinates": [ 120.9621082, 14.1874352 ] } },
{ "type": "Feature", "properties": { "amenity": "fire_station", "name": "Asingan Fire Station" }, "geometry": { "type": "Point", "coordinates": [ 120.669894, 16.0041526 ] } },
{ "type": "Feature", "properties": { "amenity": "fire_station", "name": "Masambong Fire Sub-Station" }, "geometry": { "type": "Point", "coordinates": [ 121.0119067, 14.6401768 ] } },
{ "type": "Feature", "properties": { "amenity": "fire_station", "name": "Mabini Fire Stationn" }, "geometry": { "type": "Point", "coordinates": [ 124.5233425, 9.8652126 ] } },
{ "type": "Feature", "properties": { "amenity": "fire_station", "name": "Ibayo-TIpas Fire Sub-Station" }, "geometry": { "type": "Point", "coordinates": [ 121.0884258, 14.5406304 ] } },
{ "type": "Feature", "properties": { "amenity": "fire_station", "name": "Calauag Fire Station" }, "geometry": { "type": "Point", "coordinates": [ 122.2868642, 13.9570068 ] } },
{ "type": "Feature", "properties": { "amenity": "fire_station", "name": null }, "geometry": { "type": "Point", "coordinates": [ 120.6475825, 22.4325018 ] } },
{ "type": "Feature", "properties": { "amenity": "fire_station", "name": null }, "geometry": { "type": "Point", "coordinates": [ 124.877964, 6.9458301 ] } },
{ "type": "Feature", "properties": { "amenity": "fire_station", "name": "Marabut Fire Station" }, "geometry": { "type": "Point", "coordinates": [ 125.2126366, 11.1082554 ] } },
{ "type": "Feature", "properties": { "amenity": "fire_station", "name": null }, "geometry": { "type": "Point", "coordinates": [ 124.9280836, 11.5677415 ] } },
{ "type": "Feature", "properties": { "amenity": "fire_station", "name": "屏東縣政府消防局第二大隊萬丹分隊" }, "geometry": { "type": "Point", "coordinates": [ 120.4903114, 22.587833 ] } },
{ "type": "Feature", "properties": { "amenity": "fire_station", "name": "Surallah fire station" }, "geometry": { "type": "Point", "coordinates": [ 124.7471617, 6.3767111 ] } },
{ "type": "Feature", "properties": { "amenity": "fire_station", "name": "SBMA Fire Department Station 4" }, "geometry": { "type": "Point", "coordinates": [ 120.2983262, 14.80583 ] } },
{ "type": "Feature", "properties": { "amenity": "fire_station", "name": "消防" }, "geometry": { "type": "Point", "coordinates": [ 114.035247, 22.609894 ] } },
{ "type": "Feature", "properties": { "amenity": "fire_station", "name": "Naval Fire Station" }, "geometry": { "type": "Point", "coordinates": [ 124.3940048, 11.5618904 ] } },
{ "type": "Feature", "properties": { "amenity": "fire_station", "name": null }, "geometry": { "type": "Point", "coordinates": [ 121.7222514, 17.6203656 ] } },
{ "type": "Feature", "properties": { "amenity": "fire_station", "name": null }, "geometry": { "type": "Point", "coordinates": [ 125.020219, 11.770334 ] } },
{ "type": "Feature", "properties": { "amenity": "fire_station", "name": "Bay Fire Station" }, "geometry": { "type": "Point", "coordinates": [ 121.2845448, 14.1802349 ] } },
{ "type": "Feature", "properties": { "amenity": "fire_station", "name": "Mansasa Fire Substation" }, "geometry": { "type": "Point", "coordinates": [ 123.8691235, 9.6339225 ] } },
{ "type": "Feature", "properties": { "amenity": "fire_station", "name": "Mansasa Fire Substation" }, "geometry": { "type": "Point", "coordinates": [ 123.8690588, 9.6337372 ] } },
{ "type": "Feature", "properties": { "amenity": "fire_station", "name": "Consolacion Fire Station" }, "geometry": { "type": "Point", "coordinates": [ 123.9576618, 10.3760454 ] } },
{ "type": "Feature", "properties": { "amenity": "fire_station", "name": "Agusan Filipino-Chinese Volunteer Fire Brigade" }, "geometry": { "type": "Point", "coordinates": [ 125.5411495, 8.9507213 ] } },
{ "type": "Feature", "properties": { "amenity": "fire_station", "name": "Dimiao Fire Station" }, "geometry": { "type": "Point", "coordinates": [ 124.1605943, 9.6044727 ] } },
{ "type": "Feature", "properties": { "amenity": "fire_station", "name": "Fire Station" }, "geometry": { "type": "Point", "coordinates": [ 123.4153045, 10.479913 ] } },
{ "type": "Feature", "properties": { "amenity": "fire_station", "name": "Guadalupe Fire Sub Station" }, "geometry": { "type": "Point", "coordinates": [ 123.8840279, 10.3225897 ] } },
{ "type": "Feature", "properties": { "amenity": "fire_station", "name": "Liloan Fire Station" }, "geometry": { "type": "Point", "coordinates": [ 123.9989397, 10.3997697 ] } },
{ "type": "Feature", "properties": { "amenity": "fire_station", "name": "Tipolo Fire Station" }, "geometry": { "type": "Point", "coordinates": [ 123.9275158, 10.3332101 ] } },
{ "type": "Feature", "properties": { "amenity": "fire_station", "name": "Naga City Fire Station" }, "geometry": { "type": "Point", "coordinates": [ 123.7591961, 10.2046327 ] } },
{ "type": "Feature", "properties": { "amenity": "fire_station", "name": "Carcar City Fire Station" }, "geometry": { "type": "Point", "coordinates": [ 123.6414146, 10.1053303 ] } },
{ "type": "Feature", "properties": { "amenity": "fire_station", "name": "Compostela Fire Station" }, "geometry": { "type": "Point", "coordinates": [ 124.0125467, 10.4534859 ] } },
{ "type": "Feature", "properties": { "amenity": "fire_station", "name": "Maribojoc Fire Station" }, "geometry": { "type": "Point", "coordinates": [ 123.8438827, 9.7412896 ] } },
{ "type": "Feature", "properties": { "amenity": "fire_station", "name": "Balilihan Fire Station" }, "geometry": { "type": "Point", "coordinates": [ 123.9718225, 9.7559267 ] } },
{ "type": "Feature", "properties": { "amenity": "fire_station", "name": "Loon Fire Station" }, "geometry": { "type": "Point", "coordinates": [ 123.7973133, 9.8053079 ] } },
{ "type": "Feature", "properties": { "amenity": "fire_station", "name": "Valencia Fire Station" }, "geometry": { "type": "Point", "coordinates": [ 124.2091325, 9.6094153 ] } },
{ "type": "Feature", "properties": { "amenity": "fire_station", "name": "Daan Bantayan Fire Station" }, "geometry": { "type": "Point", "coordinates": [ 124.00172, 11.2468398 ] } },
{ "type": "Feature", "properties": { "amenity": "fire_station", "name": "Zambaonguita Fire Department" }, "geometry": { "type": "Point", "coordinates": [ 123.1999029, 9.0995859 ] } },
{ "type": "Feature", "properties": { "amenity": "fire_station", "name": "Valencia Fire Station" }, "geometry": { "type": "Point", "coordinates": [ 123.2428478, 9.2819418 ] } },
{ "type": "Feature", "properties": { "amenity": "fire_station", "name": "MEPZ II Fire Station" }, "geometry": { "type": "Point", "coordinates": [ 123.9640452, 10.301045 ] } },
{ "type": "Feature", "properties": { "amenity": "fire_station", "name": "MEPZ I Fire Station" }, "geometry": { "type": "Point", "coordinates": [ 123.9805059, 10.3264834 ] } },
{ "type": "Feature", "properties": { "amenity": "fire_station", "name": "Buug Fire Station" }, "geometry": { "type": "Point", "coordinates": [ 123.060576, 7.7287731 ] } },
{ "type": "Feature", "properties": { "amenity": "fire_station", "name": "Hinunangan Fire Station" }, "geometry": { "type": "Point", "coordinates": [ 125.2030541, 10.3953802 ] } },
{ "type": "Feature", "properties": { "amenity": "fire_station", "name": null }, "geometry": { "type": "Point", "coordinates": [ 120.6529335, 14.0368038 ] } },
{ "type": "Feature", "properties": { "amenity": "fire_station", "name": "Sta. Barbara Fire Station" }, "geometry": { "type": "Point", "coordinates": [ 122.5308933, 10.8269486 ] } },
{ "type": "Feature", "properties": { "amenity": "fire_station", "name": "Mariveles Fire Station" }, "geometry": { "type": "Point", "coordinates": [ 120.4894916, 14.4358276 ] } },
{ "type": "Feature", "properties": { "amenity": "fire_station", "name": "Lapaz Fire Station" }, "geometry": { "type": "Point", "coordinates": [ 122.569817, 10.7110024 ] } },
{ "type": "Feature", "properties": { "amenity": "fire_station", "name": "Jose Panganiban Fire Station" }, "geometry": { "type": "Point", "coordinates": [ 122.6938955, 14.2856654 ] } },
{ "type": "Feature", "properties": { "amenity": "fire_station", "name": "Lazi Fire Station" }, "geometry": { "type": "Point", "coordinates": [ 123.6335257, 9.1285494 ] } },
{ "type": "Feature", "properties": { "amenity": "fire_station", "name": "Larena Fire Station" }, "geometry": { "type": "Point", "coordinates": [ 123.5950619, 9.2494914 ] } },
{ "type": "Feature", "properties": { "amenity": "fire_station", "name": "San Juan Fire Station" }, "geometry": { "type": "Point", "coordinates": [ 123.4932754, 9.1637011 ] } },
{ "type": "Feature", "properties": { "amenity": "fire_station", "name": "San Francisco Fire Station" }, "geometry": { "type": "Point", "coordinates": [ 124.3823787, 10.6454085 ] } },
{ "type": "Feature", "properties": { "amenity": "fire_station", "name": "Poro Fire Station" }, "geometry": { "type": "Point", "coordinates": [ 124.4065647, 10.6288745 ] } },
{ "type": "Feature", "properties": { "amenity": "fire_station", "name": "Tudela Fire Station" }, "geometry": { "type": "Point", "coordinates": [ 124.4709457, 10.6361397 ] } },
{ "type": "Feature", "properties": { "amenity": "fire_station", "name": "Canlaon City Fire Station" }, "geometry": { "type": "Point", "coordinates": [ 123.2277271, 10.3828291 ] } },
{ "type": "Feature", "properties": { "amenity": "fire_station", "name": "Bustos Fire Station" }, "geometry": { "type": "Point", "coordinates": [ 120.9187366, 14.9541268 ] } },
{ "type": "Feature", "properties": { "amenity": "fire_station", "name": "Baliwag Fire Station" }, "geometry": { "type": "Point", "coordinates": [ 120.8999828, 14.9595396 ] } },
{ "type": "Feature", "properties": { "amenity": "fire_station", "name": "Bureau of Fire Protection" }, "geometry": { "type": "Point", "coordinates": [ 123.7527385, 13.1514912 ] } },
{ "type": "Feature", "properties": { "amenity": "fire_station", "name": "San Jose Fire Station" }, "geometry": { "type": "Point", "coordinates": [ 124.4877402, 12.5285105 ] } },
{ "type": "Feature", "properties": { "amenity": "fire_station", "name": "Cortes Fire Station" }, "geometry": { "type": "Point", "coordinates": [ 126.192061, 9.2753596 ] } },
{ "type": "Feature", "properties": { "amenity": "fire_station", "name": "Loreto Fire Station" }, "geometry": { "type": "Point", "coordinates": [ 125.8535608, 8.1870045 ] } },
{ "type": "Feature", "properties": { "amenity": "fire_station", "name": "Culion Fire Station" }, "geometry": { "type": "Point", "coordinates": [ 120.0186513, 11.8948146 ] } },
{ "type": "Feature", "properties": { "amenity": "fire_station", "name": "Palapag Firetruck Garage (temporary)" }, "geometry": { "type": "Point", "coordinates": [ 125.1153887, 12.5460834 ] } },
{ "type": "Feature", "properties": { "amenity": "fire_station", "name": null }, "geometry": { "type": "Point", "coordinates": [ 125.5989889, 7.0571864 ] } },
{ "type": "Feature", "properties": { "amenity": "fire_station", "name": "San Juan Fire Station" }, "geometry": { "type": "Point", "coordinates": [ 122.9379718, 10.665671 ] } },
{ "type": "Feature", "properties": { "amenity": "fire_station", "name": "BFP - Claveria" }, "geometry": { "type": "Point", "coordinates": [ 124.8938142, 8.611189 ] } },
{ "type": "Feature", "properties": { "amenity": "fire_station", "name": null }, "geometry": { "type": "Point", "coordinates": [ 113.9698935, 22.382913 ] } },
{ "type": "Feature", "properties": { "amenity": "fire_station", "name": "Ongpin-Gandara-Tetuan Volunteer Fire Brigade" }, "geometry": { "type": "Point", "coordinates": [ 120.9772048, 14.6003078 ] } },
{ "type": "Feature", "properties": { "amenity": "fire_station", "name": "Maypajo Fire Station" }, "geometry": { "type": "Point", "coordinates": [ 120.9737005, 14.6377654 ] } },
{ "type": "Feature", "properties": { "amenity": "fire_station", "name": "SBMA Fire Department Station 7" }, "geometry": { "type": "Point", "coordinates": [ 120.2831693, 14.8180782 ] } },
{ "type": "Feature", "properties": { "amenity": "fire_station", "name": "SBMA Fire Department Station 5" }, "geometry": { "type": "Point", "coordinates": [ 120.3255886, 14.8043237 ] } },
{ "type": "Feature", "properties": { "amenity": "fire_station", "name": "SBMA Fire Department Station 6" }, "geometry": { "type": "Point", "coordinates": [ 120.3085061, 14.8432222 ] } },
{ "type": "Feature", "properties": { "amenity": "fire_station", "name": "SBMA Fire Department Station 2" }, "geometry": { "type": "Point", "coordinates": [ 120.2813358, 14.7572469 ] } },
{ "type": "Feature", "properties": { "amenity": "fire_station", "name": "Malate Fire Volunteer and Rescue Squad" }, "geometry": { "type": "Point", "coordinates": [ 120.9865283, 14.5655112 ] } },
{ "type": "Feature", "properties": { "amenity": "fire_station", "name": "Office of the Provincial Fire Marshal" }, "geometry": { "type": "Point", "coordinates": [ 120.9769364, 17.0895737 ] } },
{ "type": "Feature", "properties": { "amenity": "fire_station", "name": "Alpha Fire Brigade" }, "geometry": { "type": "Point", "coordinates": [ 120.9657, 14.62917 ] } },
{ "type": "Feature", "properties": { "amenity": "fire_station", "name": "B.M. Domingo Brigade" }, "geometry": { "type": "Point", "coordinates": [ 120.96659, 14.60462 ] } },
{ "type": "Feature", "properties": { "amenity": "fire_station", "name": "Bambang-Masangkay-Abad Santos Volunteer Fire Brigade" }, "geometry": { "type": "Point", "coordinates": [ 120.9798307, 14.6101974 ] } },
{ "type": "Feature", "properties": { "amenity": "fire_station", "name": "Blue Dragon Fire and Rescue" }, "geometry": { "type": "Point", "coordinates": [ 120.97036, 14.62868 ] } },
{ "type": "Feature", "properties": { "amenity": "fire_station", "name": "Central Downtown Firefighters" }, "geometry": { "type": "Point", "coordinates": [ 120.9812835, 14.6087189 ] } },
{ "type": "Feature", "properties": { "amenity": "fire_station", "name": "Central Sampaloc Fire and Rescue Volunteer Brigade" }, "geometry": { "type": "Point", "coordinates": [ 120.99085, 14.61812 ] } },
{ "type": "Feature", "properties": { "amenity": "fire_station", "name": "Central San Nicolas Fire Brigade" }, "geometry": { "type": "Point", "coordinates": [ 120.96899, 14.59885 ] } },
{ "type": "Feature", "properties": { "amenity": "fire_station", "name": "Central Tondo Volunteer Fire Brigade" }, "geometry": { "type": "Point", "coordinates": [ 120.96751, 14.61262 ] } },
{ "type": "Feature", "properties": { "amenity": "fire_station", "name": "Chinatown Volunteers" }, "geometry": { "type": "Point", "coordinates": [ 120.97698, 14.59976 ] } },
{ "type": "Feature", "properties": { "amenity": "fire_station", "name": "Dagupan Volunteer Fire Brigade" }, "geometry": { "type": "Point", "coordinates": [ 120.97259, 14.61122 ] } },
{ "type": "Feature", "properties": { "amenity": "fire_station", "name": "Divisoria Volunteer Firefighters" }, "geometry": { "type": "Point", "coordinates": [ 120.97136, 14.603694 ] } },
{ "type": "Feature", "properties": { "amenity": "fire_station", "name": "Binondo Paco Fire Search and Rescue Brigade" }, "geometry": { "type": "Point", "coordinates": [ 120.97524, 14.6002 ] } },
{ "type": "Feature", "properties": { "amenity": "fire_station", "name": "G. Perfecto Volunteer Fire Brigade" }, "geometry": { "type": "Point", "coordinates": [ 120.97149, 14.61281 ] } },
{ "type": "Feature", "properties": { "amenity": "fire_station", "name": "Hometown Volunteer" }, "geometry": { "type": "Point", "coordinates": [ 120.9758228, 14.6042306 ] } },
{ "type": "Feature", "properties": { "amenity": "fire_station", "name": "Maginoo Fire Rescue Volunteer" }, "geometry": { "type": "Point", "coordinates": [ 120.9614445, 14.6201817 ] } },
{ "type": "Feature", "properties": { "amenity": "fire_station", "name": "Manila Blumentrit Volunteer Fire Brigade" }, "geometry": { "type": "Point", "coordinates": [ 120.98008, 14.62246 ] } },
{ "type": "Feature", "properties": { "amenity": "fire_station", "name": "Manila DJ Zone 31 Volunteer Fire Brigade" }, "geometry": { "type": "Point", "coordinates": [ 120.97936, 14.60553 ] } },
{ "type": "Feature", "properties": { "amenity": "fire_station", "name": "Manila Setba Volunteer Fire Brigade" }, "geometry": { "type": "Point", "coordinates": [ 120.98104, 14.62028 ] } },
{ "type": "Feature", "properties": { "amenity": "fire_station", "name": "New Market Volunteer Fire Brigade" }, "geometry": { "type": "Point", "coordinates": [ 120.96811, 14.6073 ] } },
{ "type": "Feature", "properties": { "amenity": "fire_station", "name": "North Jose Abad Santos Fire Brigade" }, "geometry": { "type": "Point", "coordinates": [ 120.9681, 14.62535 ] } },
{ "type": "Feature", "properties": { "amenity": "fire_station", "name": "North Tondo Volunteers" }, "geometry": { "type": "Point", "coordinates": [ 120.9694, 14.61975 ] } },
{ "type": "Feature", "properties": { "amenity": "fire_station", "name": "Pandacan Volunteers" }, "geometry": { "type": "Point", "coordinates": [ 121.00131, 14.58585 ] } },
{ "type": "Feature", "properties": { "amenity": "fire_station", "name": "Red Cross Fire Brigade" }, "geometry": { "type": "Point", "coordinates": [ 120.97021, 14.59132 ] } },
{ "type": "Feature", "properties": { "amenity": "fire_station", "name": "Saint Florian Rescue Fire Department" }, "geometry": { "type": "Point", "coordinates": [ 120.97978, 14.60748 ] } },
{ "type": "Feature", "properties": { "amenity": "fire_station", "name": "San Andres Fire Volunteer Brigade" }, "geometry": { "type": "Point", "coordinates": [ 121.00378, 14.5691 ] } },
{ "type": "Feature", "properties": { "amenity": "fire_station", "name": "Soler Volunteer Fire Prevention Center" }, "geometry": { "type": "Point", "coordinates": [ 120.98066, 14.60217 ] } },
{ "type": "Feature", "properties": { "amenity": "fire_station", "name": "South San Nicolas Volunteer Fire Brigade" }, "geometry": { "type": "Point", "coordinates": [ 120.97335, 14.5992 ] } },
{ "type": "Feature", "properties": { "amenity": "fire_station", "name": "Tondo 1 Volunteer Firefighters" }, "geometry": { "type": "Point", "coordinates": [ 120.97275, 14.61249 ] } },
{ "type": "Feature", "properties": { "amenity": "fire_station", "name": "Tutuban Prime" }, "geometry": { "type": "Point", "coordinates": [ 120.9726432, 14.6105952 ] } },
{ "type": "Feature", "properties": { "amenity": "fire_station", "name": "West Tondo Volunteer Brigade" }, "geometry": { "type": "Point", "coordinates": [ 120.97497, 14.61036 ] } },
{ "type": "Feature", "properties": { "amenity": "fire_station", "name": "Imus Central Station" }, "geometry": { "type": "Point", "coordinates": [ 120.9415122, 14.4230366 ] } },
{ "type": "Feature", "properties": { "amenity": "fire_station", "name": "卑南消防分隊" }, "geometry": { "type": "Point", "coordinates": [ 121.0936248, 22.8302711 ] } },
{ "type": "Feature", "properties": { "amenity": "fire_station", "name": "台東縣消防局" }, "geometry": { "type": "Point", "coordinates": [ 121.1517238, 22.7648342 ] } },
{ "type": "Feature", "properties": { "amenity": "fire_station", "name": null }, "geometry": { "type": "Point", "coordinates": [ 123.0880964, 11.4719578 ] } },
{ "type": "Feature", "properties": { "amenity": "fire_station", "name": "Bartville, Dela Paz Fire Station" }, "geometry": { "type": "Point", "coordinates": [ 121.093767, 14.6111493 ] } },
{ "type": "Feature", "properties": { "amenity": "fire_station", "name": "Escolta Santa Cruz Fire and Rescue Volunteers" }, "geometry": { "type": "Point", "coordinates": [ 120.9799629, 14.59877 ] } },
{ "type": "Feature", "properties": { "amenity": "fire_station", "name": "Madridejos Fire Station" }, "geometry": { "type": "Point", "coordinates": [ 123.7298747, 11.2960827 ] } },
{ "type": "Feature", "properties": { "amenity": "fire_station", "name": "San Fernando Municipal Fire Station" }, "geometry": { "type": "Point", "coordinates": [ 123.7077401, 10.1611656 ] } },
{ "type": "Feature", "properties": { "amenity": "fire_station", "name": "Talisay City Fire Station" }, "geometry": { "type": "Point", "coordinates": [ 123.8290965, 10.2534105 ] } },
{ "type": "Feature", "properties": { "amenity": "fire_station", "name": "Polillo Municipal Fire Department" }, "geometry": { "type": "Point", "coordinates": [ 121.9380869, 14.7143547 ] } },
{ "type": "Feature", "properties": { "amenity": "fire_station", "name": "Bureau of Fire Protection" }, "geometry": { "type": "Point", "coordinates": [ 121.0475788, 14.8092949 ] } },
{ "type": "Feature", "properties": { "amenity": "fire_station", "name": "FPIP Fire Station" }, "geometry": { "type": "Point", "coordinates": [ 121.1304563, 14.136835 ] } },
{ "type": "Feature", "properties": { "amenity": "fire_station", "name": "Rosario Fire Station" }, "geometry": { "type": "Point", "coordinates": [ 121.0845046, 14.5861225 ] } },
{ "type": "Feature", "properties": { "amenity": "fire_station", "name": "Culasi Fire Station" }, "geometry": { "type": "Point", "coordinates": [ 122.0550653, 11.4264034 ] } },
{ "type": "Feature", "properties": { "amenity": "fire_station", "name": "Castillejos Fire Station" }, "geometry": { "type": "Point", "coordinates": [ 120.1996391, 14.9322286 ] } },
{ "type": "Feature", "properties": { "amenity": "fire_station", "name": "Rodriguez Sub-Fire Station" }, "geometry": { "type": "Point", "coordinates": [ 122.937953, 10.6656337 ] } },
{ "type": "Feature", "properties": { "amenity": "fire_station", "name": "Balai Bomba Tutong" }, "geometry": { "type": "Point", "coordinates": [ 114.6561147, 4.8033504 ] } },
{ "type": "Feature", "properties": { "amenity": "fire_station", "name": "San Jose Fire Station" }, "geometry": { "type": "Point", "coordinates": [ 125.0228004, 11.2075665 ] } },
{ "type": "Feature", "properties": { "amenity": "fire_station", "name": null }, "geometry": { "type": "Point", "coordinates": [ 123.0181934, 10.3236657 ] } },
{ "type": "Feature", "properties": { "amenity": "fire_station", "name": null }, "geometry": { "type": "Point", "coordinates": [ 123.0729058, 10.2716331 ] } },
{ "type": "Feature", "properties": { "amenity": "fire_station", "name": "MADDELA FIRE STATION" }, "geometry": { "type": "Point", "coordinates": [ 121.6839823, 16.3397422 ] } },
{ "type": "Feature", "properties": { "amenity": "fire_station", "name": null }, "geometry": { "type": "Point", "coordinates": [ 120.9240454, 15.5836474 ] } },
{ "type": "Feature", "properties": { "amenity": "fire_station", "name": "Oroquieta Fire Station" }, "geometry": { "type": "Point", "coordinates": [ 123.7971283, 8.4766891 ] } },
{ "type": "Feature", "properties": { "amenity": "fire_station", "name": "Matag-ob Fire Station" }, "geometry": { "type": "Point", "coordinates": [ 124.470805, 11.1485295 ] } },
{ "type": "Feature", "properties": { "amenity": "fire_station", "name": null }, "geometry": { "type": "Point", "coordinates": [ 120.5070647, 22.5148202 ] } },
{ "type": "Feature", "properties": { "amenity": "fire_station", "name": "San Rafael Fire Station" }, "geometry": { "type": "Point", "coordinates": [ 120.9274833, 14.9821692 ] } },
{ "type": "Feature", "properties": { "amenity": "fire_station", "name": "FIRE STATION" }, "geometry": { "type": "Point", "coordinates": [ 124.6285843, 12.5058713 ] } },
{ "type": "Feature", "properties": { "amenity": "fire_station", "name": "Fire Station" }, "geometry": { "type": "Point", "coordinates": [ 124.3209577, 10.1411248 ] } },
{ "type": "Feature", "properties": { "amenity": "fire_station", "name": "Numancia Fire Station" }, "geometry": { "type": "Point", "coordinates": [ 122.3293853, 11.7047521 ] } },
{ "type": "Feature", "properties": { "amenity": "fire_station", "name": null }, "geometry": { "type": "Point", "coordinates": [ 121.0354236, 14.7211292 ] } },
{ "type": "Feature", "properties": { "amenity": "fire_station", "name": "Laua-an Fire Station" }, "geometry": { "type": "Point", "coordinates": [ 122.0414716, 11.1431775 ] } },
{ "type": "Feature", "properties": { "amenity": "fire_station", "name": "BFR RO2 OFFICE" }, "geometry": { "type": "Point", "coordinates": [ 121.7519312, 17.6531649 ] } },
{ "type": "Feature", "properties": { "amenity": "fire_station", "name": "(EMS) BFP REGIONAL OFFICE" }, "geometry": { "type": "Point", "coordinates": [ 121.7518055, 17.6533643 ] } },
{ "type": "Feature", "properties": { "amenity": "fire_station", "name": "NEW BUILDING GAPAN CITY FIRE STATION" }, "geometry": { "type": "Point", "coordinates": [ 120.9486096, 15.2929787 ] } },
{ "type": "Feature", "properties": { "amenity": "fire_station", "name": "Gattaran Fire Station" }, "geometry": { "type": "Point", "coordinates": [ 121.6462332, 18.0613558 ] } },
{ "type": "Feature", "properties": { "amenity": "fire_station", "name": "Dinas Central Fire Station" }, "geometry": { "type": "Point", "coordinates": [ 123.3390191, 7.6162377 ] } },
{ "type": "Feature", "properties": { "amenity": "fire_station", "name": "Fire Station" }, "geometry": { "type": "Point", "coordinates": [ 120.4765177, 17.3636928 ] } },
{ "type": "Feature", "properties": { "amenity": "fire_station", "name": "Santa Rita Fire Station" }, "geometry": { "type": "Point", "coordinates": [ 124.9406306, 11.451838 ] } },
{ "type": "Feature", "properties": { "amenity": "fire_station", "name": "Bureau of Fire Protection" }, "geometry": { "type": "Point", "coordinates": [ 125.3006017, 11.1404223 ] } },
{ "type": "Feature", "properties": { "amenity": "fire_station", "name": "Bureau of Fire-San Fernando" }, "geometry": { "type": "Point", "coordinates": [ 123.1439582, 13.5649654 ] } },
{ "type": "Feature", "properties": { "amenity": "fire_station", "name": "Ballesteros Fire Station" }, "geometry": { "type": "Point", "coordinates": [ 121.515396, 18.4100601 ] } },
{ "type": "Feature", "properties": { "amenity": "fire_station", "name": "Taft Fire Station" }, "geometry": { "type": "Point", "coordinates": [ 125.4171903, 11.9043444 ] } },
{ "type": "Feature", "properties": { "amenity": "fire_station", "name": "Pioduran Fire Station" }, "geometry": { "type": "Point", "coordinates": [ 123.4476899, 13.0285368 ] } },
{ "type": "Feature", "properties": { "amenity": "fire_station", "name": "Carmel Central Fire Station" }, "geometry": { "type": "Point", "coordinates": [ 124.1967513, 9.820363 ] } },
{ "type": "Feature", "properties": { "amenity": "fire_station", "name": "Tagbilaran City Fire Station" }, "geometry": { "type": "Point", "coordinates": [ 123.8645427, 9.6537253 ] } },
{ "type": "Feature", "properties": { "amenity": "fire_station", "name": "DILG" }, "geometry": { "type": "Point", "coordinates": [ 122.6179088, 11.0593145 ] } },
{ "type": "Feature", "properties": { "amenity": "fire_station", "name": "Binangonan Fire Station" }, "geometry": { "type": "Point", "coordinates": [ 121.1884967, 14.4817166 ] } },
{ "type": "Feature", "properties": { "amenity": "fire_station", "name": "Bangued Fire Station" }, "geometry": { "type": "Point", "coordinates": [ 120.6164083, 17.6012217 ] } },
{ "type": "Feature", "properties": { "amenity": "fire_station", "name": "San Quintin Fire Station" }, "geometry": { "type": "Point", "coordinates": [ 120.5200385, 17.5417691 ] } },
{ "type": "Feature", "properties": { "amenity": "fire_station", "name": "Temporary San Quintin FS" }, "geometry": { "type": "Point", "coordinates": [ 120.5190091, 17.5431358 ] } },
{ "type": "Feature", "properties": { "amenity": "fire_station", "name": "Buguias Fire Station" }, "geometry": { "type": "Point", "coordinates": [ 120.8219438, 16.8003584 ] } },
{ "type": "Feature", "properties": { "amenity": "fire_station", "name": "Basak Mandaue Fire Sub-Station" }, "geometry": { "type": "Point", "coordinates": [ 123.9500406, 10.3545172 ] } },
{ "type": "Feature", "properties": { "amenity": "fire_station", "name": "Fire Station" }, "geometry": { "type": "Point", "coordinates": [ 123.4164997, 10.8976615 ] } },
{ "type": "Feature", "properties": { "amenity": "fire_station", "name": "Dolores Fire Station" }, "geometry": { "type": "Point", "coordinates": [ 125.4844991, 12.0359786 ] } },
{ "type": "Feature", "properties": { "amenity": "fire_station", "name": "San Nicolas Fire Station" }, "geometry": { "type": "Point", "coordinates": [ 120.9521921, 13.9303321 ] } },
{ "type": "Feature", "properties": { "amenity": "fire_station", "name": null }, "geometry": { "type": "Point", "coordinates": [ 120.6445803, 22.7049965 ] } },
{ "type": "Feature", "properties": { "amenity": "fire_station", "name": null }, "geometry": { "type": "Point", "coordinates": [ 120.8230124, 21.9346592 ] } },
{ "type": "Feature", "properties": { "amenity": "fire_station", "name": "Tarlac Filipino Chinese Fire Brigade Volunteers" }, "geometry": { "type": "Point", "coordinates": [ 120.5972399, 15.4948065 ] } },
{ "type": "Feature", "properties": { "amenity": "fire_station", "name": null }, "geometry": { "type": "Point", "coordinates": [ 121.4402612, 17.4035388 ] } },
{ "type": "Feature", "properties": { "amenity": "fire_station", "name": "Barangay Basak San Nicolas Fire Station" }, "geometry": { "type": "Point", "coordinates": [ 123.8704696, 10.2861537 ] } },
{ "type": "Feature", "properties": { "amenity": "fire_station", "name": "Igbaras Fire Station" }, "geometry": { "type": "Point", "coordinates": [ 122.2654151, 10.7159866 ] } },
{ "type": "Feature", "properties": { "amenity": "fire_station", "name": null }, "geometry": { "type": "Point", "coordinates": [ 123.8382891, 8.1437562 ] } },
{ "type": "Feature", "properties": { "amenity": "fire_station", "name": "Carmen Fire Station" }, "geometry": { "type": "Point", "coordinates": [ 123.8483257, 8.1435593 ] } },
{ "type": "Feature", "properties": { "amenity": "fire_station", "name": "Tabuk City Fire Department" }, "geometry": { "type": "Point", "coordinates": [ 121.465676, 17.4706049 ] } },
{ "type": "Feature", "properties": { "amenity": "fire_station", "name": "Abra de Ilog Fire Station" }, "geometry": { "type": "Point", "coordinates": [ 120.7263636, 13.4405233 ] } },
{ "type": "Feature", "properties": { "amenity": "fire_station", "name": "Cortes Fire Station" }, "geometry": { "type": "Point", "coordinates": [ 126.1878456, 9.2762543 ] } },
{ "type": "Feature", "properties": { "amenity": "fire_station", "name": "San Antonio Fire Station" }, "geometry": { "type": "Point", "coordinates": [ 120.8568638, 15.3074837 ] } },
{ "type": "Feature", "properties": { "amenity": "fire_station", "name": "Altavas Fire Station" }, "geometry": { "type": "Point", "coordinates": [ 122.487785, 11.5377137 ] } },
{ "type": "Feature", "properties": { "amenity": "fire_station", "name": "taguig" }, "geometry": { "type": "Point", "coordinates": [ 120.9009722, 13.5270615 ] } },
{ "type": "Feature", "properties": { "amenity": "fire_station", "name": "D'ECK TRANS Volunteer Fire & Rescue Brigade" }, "geometry": { "type": "Point", "coordinates": [ 120.9624239, 14.6009891 ] } },
{ "type": "Feature", "properties": { "amenity": "fire_station", "name": null }, "geometry": { "type": "Point", "coordinates": [ 117.997638, 9.2380651 ] } },
{ "type": "Feature", "properties": { "amenity": "fire_station", "name": null }, "geometry": { "type": "Point", "coordinates": [ 117.6492994, 9.0177645 ] } },
{ "type": "Feature", "properties": { "amenity": "fire_station", "name": "Tayugo Fire Sub-station" }, "geometry": { "type": "Point", "coordinates": [ 124.5517205, 6.6453409 ] } },
{ "type": "Feature", "properties": { "amenity": "fire_station", "name": null }, "geometry": { "type": "Point", "coordinates": [ 122.0346107, 11.289287 ] } },
{ "type": "Feature", "properties": { "amenity": "fire_station", "name": "Cagayan de Oro City Fire District Station 6" }, "geometry": { "type": "Point", "coordinates": [ 124.6313028, 8.5023602 ] } },
{ "type": "Feature", "properties": { "amenity": "fire_station", "name": null }, "geometry": { "type": "Point", "coordinates": [ 121.3410956, 12.3214697 ] } },
{ "type": "Feature", "properties": { "amenity": "fire_station", "name": "Tupi fire station" }, "geometry": { "type": "Point", "coordinates": [ 124.9497435, 6.3309995 ] } },
{ "type": "Feature", "properties": { "amenity": "fire_station", "name": "Garchitorena Fire Station" }, "geometry": { "type": "Point", "coordinates": [ 123.7016609, 13.8841152 ] } },
{ "type": "Feature", "properties": { "amenity": "fire_station", "name": "Bureau of Fire Protection - Aliaga Fire Station" }, "geometry": { "type": "Point", "coordinates": [ 120.8432747, 15.5010097 ] } },
{ "type": "Feature", "properties": { "amenity": "fire_station", "name": "Cordova Fire Station" }, "geometry": { "type": "Point", "coordinates": [ 123.9492132, 10.2517297 ] } },
{ "type": "Feature", "properties": { "amenity": "fire_station", "name": "Trinidad Fire Station" }, "geometry": { "type": "Point", "coordinates": [ 124.3475318, 10.0798678 ] } },
{ "type": "Feature", "properties": { "amenity": "fire_station", "name": "Alaminos Fire Station" }, "geometry": { "type": "Point", "coordinates": [ 121.246749, 14.0655067 ] } },
{ "type": "Feature", "properties": { "amenity": "fire_station", "name": null }, "geometry": { "type": "Point", "coordinates": [ 122.6865574, 12.3688461 ] } },
{ "type": "Feature", "properties": { "amenity": "fire_station", "name": "Minalin Fire Station" }, "geometry": { "type": "Point", "coordinates": [ 120.6843014, 14.9689422 ] } },
{ "type": "Feature", "properties": { "amenity": "fire_station", "name": "FIRE SUB-STATION" }, "geometry": { "type": "Point", "coordinates": [ 121.0687178, 13.7840415 ] } },
{ "type": "Feature", "properties": { "amenity": "fire_station", "name": "Valenzuela Primo" }, "geometry": { "type": "Point", "coordinates": [ 120.9787829, 14.6823729 ] } },
{ "type": "Feature", "properties": { "amenity": "fire_station", "name": "Manapla Fire Station" }, "geometry": { "type": "Point", "coordinates": [ 123.1230828, 10.9597026 ] } },
{ "type": "Feature", "properties": { "amenity": "fire_station", "name": "Oslob Fire Station" }, "geometry": { "type": "Point", "coordinates": [ 123.4309549, 9.5212876 ] } },
{ "type": "Feature", "properties": { "amenity": "fire_station", "name": "Bureau of Fire Protection" }, "geometry": { "type": "Point", "coordinates": [ 120.3831651, 17.5473788 ] } },
{ "type": "Feature", "properties": { "amenity": "fire_station", "name": null }, "geometry": { "type": "Point", "coordinates": [ 120.3641324, 17.5893167 ] } },
{ "type": "Feature", "properties": { "amenity": "fire_station", "name": "Dolores Fire Station" }, "geometry": { "type": "Point", "coordinates": [ 125.484005, 12.0356299 ] } },
{ "type": "Feature", "properties": { "amenity": "fire_station", "name": "Paco Volunteer Fire Brigade" }, "geometry": { "type": "Point", "coordinates": [ 120.997634, 14.5795193 ] } },
{ "type": "Feature", "properties": { "amenity": "fire_station", "name": "RD Shipyard Volunteer Fire Brigade" }, "geometry": { "type": "Point", "coordinates": [ 125.1269335, 6.002081 ] } },
{ "type": "Feature", "properties": { "amenity": "fire_station", "name": "RD Volunteer Fire Brigade" }, "geometry": { "type": "Point", "coordinates": [ 125.15268, 6.0871304 ] } },
{ "type": "Feature", "properties": { "amenity": "fire_station", "name": "Dole Philippines - Calumpang Volunteer Fire Brigade" }, "geometry": { "type": "Point", "coordinates": [ 125.1524037, 6.0833644 ] } },
{ "type": "Feature", "properties": { "amenity": "fire_station", "name": "KCC Volunteer Fire Brigade" }, "geometry": { "type": "Point", "coordinates": [ 125.189158, 6.1150034 ] } },
{ "type": "Feature", "properties": { "amenity": "fire_station", "name": "CPAVI Volunteer Fire Brigade" }, "geometry": { "type": "Point", "coordinates": [ 125.1437938, 6.0655532 ] } },
{ "type": "Feature", "properties": { "amenity": "fire_station", "name": "Barangay Fatima Volunteer Fire Brigade" }, "geometry": { "type": "Point", "coordinates": [ 125.1151666, 6.0738375 ] } },
{ "type": "Feature", "properties": { "amenity": "fire_station", "name": "Barangay Labangal Volunteer Fire Brigade" }, "geometry": { "type": "Point", "coordinates": [ 125.1521784, 6.0944755 ] } },
{ "type": "Feature", "properties": { "amenity": "fire_station", "name": "Claveria Fire Station" }, "geometry": { "type": "Point", "coordinates": [ 121.0822811, 18.606784 ] } },
{ "type": "Feature", "properties": { "amenity": "fire_station", "name": "Sampaloc Fire Station" }, "geometry": { "type": "Point", "coordinates": [ 121.6386525, 14.161759 ] } },
{ "type": "Feature", "properties": { "amenity": "fire_station", "name": "Calamba Fire Station" }, "geometry": { "type": "Point", "coordinates": [ 121.1675701, 14.2116854 ] } },
{ "type": "Feature", "properties": { "amenity": "fire_station", "name": null }, "geometry": { "type": "Point", "coordinates": [ 120.6860988, 15.0234821 ] } },
{ "type": "Feature", "properties": { "amenity": "fire_station", "name": "Panacan Fire Station" }, "geometry": { "type": "Point", "coordinates": [ 125.6553362, 7.1582565 ] } },
{ "type": "Feature", "properties": { "amenity": "fire_station", "name": "Cabantian Fire Station" }, "geometry": { "type": "Point", "coordinates": [ 125.5992579, 7.1431788 ] } },
{ "type": "Feature", "properties": { "amenity": "fire_station", "name": "Central San Juan Fire and Rescue Volunteers" }, "geometry": { "type": "Point", "coordinates": [ 121.028065, 14.6011279 ] } },
{ "type": "Feature", "properties": { "amenity": "fire_station", "name": "Boac Fire Station" }, "geometry": { "type": "Point", "coordinates": [ 121.8339741, 13.4492666 ] } },
{ "type": "Feature", "properties": { "amenity": "fire_station", "name": "Tacloban Filipino-Chinese Volunteer Fire Brigade" }, "geometry": { "type": "Point", "coordinates": [ 125.0025857, 11.2502558 ] } },
{ "type": "Feature", "properties": { "amenity": "fire_station", "name": "Santa Catalina Fire Station" }, "geometry": { "type": "Point", "coordinates": [ 122.0870197, 6.9090955 ] } },
{ "type": "Feature", "properties": { "amenity": "fire_station", "name": "Odiongan Fire Station" }, "geometry": { "type": "Point", "coordinates": [ 121.9813457, 12.4001068 ] } },
{ "type": "Feature", "properties": { "amenity": "fire_station", "name": null }, "geometry": { "type": "Point", "coordinates": [ 121.9812782, 6.7040295 ] } },
{ "type": "Feature", "properties": { "amenity": "fire_station", "name": "San Luis Fire Station" }, "geometry": { "type": "Point", "coordinates": [ 121.5226813, 15.7230984 ] } },
{ "type": "Feature", "properties": { "amenity": "fire_station", "name": null }, "geometry": { "type": "Point", "coordinates": [ 121.1375395, 22.9164056 ] } },
{ "type": "Feature", "properties": { "amenity": "fire_station", "name": "Leon Fire Station" }, "geometry": { "type": "Point", "coordinates": [ 122.3872783, 10.7814549 ] } },
{ "type": "Feature", "properties": { "amenity": "fire_station", "name": "Bocaue Fire Station" }, "geometry": { "type": "Point", "coordinates": [ 120.9354769, 14.780172 ] } },
{ "type": "Feature", "properties": { "amenity": "fire_station", "name": "Capas Fire Station" }, "geometry": { "type": "Point", "coordinates": [ 120.5927951, 15.3467304 ] } },
{ "type": "Feature", "properties": { "amenity": "fire_station", "name": "Shariff Aguak Fire Station" }, "geometry": { "type": "Point", "coordinates": [ 124.4392423, 6.8637657 ] } },
{ "type": "Feature", "properties": { "amenity": "fire_station", "name": "Fire Station of Nabunturan" }, "geometry": { "type": "Point", "coordinates": [ 125.9690856, 7.6029554 ] } },
{ "type": "Feature", "properties": { "amenity": "fire_station", "name": "New Bureau Fire of Protection" }, "geometry": { "type": "Point", "coordinates": [ 120.487466, 16.4972378 ] } },
{ "type": "Feature", "properties": { "amenity": "fire_station", "name": "Bureau of Fire Protection - Bulacan" }, "geometry": { "type": "Point", "coordinates": [ 120.8158575, 14.8562372 ] } },
{ "type": "Feature", "properties": { "amenity": "fire_station", "name": null }, "geometry": { "type": "Point", "coordinates": [ 124.2508469, 7.2175318 ] } },
{ "type": "Feature", "properties": { "amenity": "fire_station", "name": "Makato Fire Station" }, "geometry": { "type": "Point", "coordinates": [ 122.2922561, 11.7122337 ] } },
{ "type": "Feature", "properties": { "amenity": "fire_station", "name": "Torrijos Fire Station" }, "geometry": { "type": "Point", "coordinates": [ 122.0862043, 13.3220417 ] } },
{ "type": "Feature", "properties": { "amenity": "fire_station", "name": "Tayabas City Fire Station" }, "geometry": { "type": "Point", "coordinates": [ 121.5929047, 14.024303 ] } },
{ "type": "Feature", "properties": { "amenity": "fire_station", "name": "Santa Cruz Fire Station" }, "geometry": { "type": "Point", "coordinates": [ 125.4151311, 6.8342283 ] } },
{ "type": "Feature", "properties": { "amenity": "fire_station", "name": null }, "geometry": { "type": "Point", "coordinates": [ 121.0743342, 14.6416099 ] } },
{ "type": "Feature", "properties": { "amenity": "fire_station", "name": "Santa Barbara Fire Station" }, "geometry": { "type": "Point", "coordinates": [ 120.4029875, 16.0003124 ] } },
{ "type": "Feature", "properties": { "amenity": "fire_station", "name": "Camaligan Fire Station" }, "geometry": { "type": "Point", "coordinates": [ 123.1672308, 13.6246216 ] } },
{ "type": "Feature", "properties": { "amenity": "fire_station", "name": "Leon Fire Station" }, "geometry": { "type": "Point", "coordinates": [ 122.3872311, 10.7814274 ] } },
{ "type": "Feature", "properties": { "amenity": "fire_station", "name": "Guimbal Fire Station" }, "geometry": { "type": "Point", "coordinates": [ 122.3219023, 10.6617413 ] } },
{ "type": "Feature", "properties": { "amenity": "fire_station", "name": "Fire truck" }, "geometry": { "type": "Point", "coordinates": [ 122.0614022, 6.6796575 ] } },
{ "type": "Feature", "properties": { "amenity": "fire_station", "name": null }, "geometry": { "type": "Point", "coordinates": [ 125.4528922, 11.8142958 ] } },
{ "type": "Feature", "properties": { "amenity": "fire_station", "name": "Sindangan Fire Station" }, "geometry": { "type": "Point", "coordinates": [ 122.9982163, 8.2333847 ] } },
{ "type": "Feature", "properties": { "amenity": "fire_station", "name": "Bislig Fire Station" }, "geometry": { "type": "Point", "coordinates": [ 126.3161069, 8.218451 ] } },
{ "type": "Feature", "properties": { "amenity": "fire_station", "name": "San Marcelino Fire Station" }, "geometry": { "type": "Point", "coordinates": [ 120.1555062, 14.9746431 ] } },
{ "type": "Feature", "properties": { "amenity": "fire_station", "name": null }, "geometry": { "type": "Point", "coordinates": [ 122.566645, 10.7396781 ] } },
{ "type": "Feature", "properties": { "amenity": "fire_station", "name": null }, "geometry": { "type": "Point", "coordinates": [ 121.012547, 14.5250656 ] } },
{ "type": "Feature", "properties": { "amenity": "fire_station", "name": null }, "geometry": { "type": "Point", "coordinates": [ 120.2634139, 14.851435 ] } },
{ "type": "Feature", "properties": { "amenity": "fire_station", "name": "Dao Fire Station" }, "geometry": { "type": "Point", "coordinates": [ 122.6842931, 11.3943226 ] } },
{ "type": "Feature", "properties": { "amenity": "fire_station", "name": "Costner" }, "geometry": { "type": "Point", "coordinates": [ 122.5797576, 10.6949828 ] } },
{ "type": "Feature", "properties": { "amenity": "fire_station", "name": "Tanay BFP" }, "geometry": { "type": "Point", "coordinates": [ 121.2828153, 14.5004673 ] } },
{ "type": "Feature", "properties": { "amenity": "fire_station", "name": "Placer Fire Station" }, "geometry": { "type": "Point", "coordinates": [ 125.6001031, 9.6566928 ] } },
{ "type": "Feature", "properties": { "amenity": "fire_station", "name": "Bureau of Fire Protection" }, "geometry": { "type": "Point", "coordinates": [ 120.48726, 16.4975148 ] } },
{ "type": "Feature", "properties": { "amenity": "fire_station", "name": "San Lorenzo Ruiz Fire Station" }, "geometry": { "type": "Point", "coordinates": [ 122.86216, 14.0351332 ] } },
{ "type": "Feature", "properties": { "amenity": "fire_station", "name": "Cagayan fire station" }, "geometry": { "type": "Point", "coordinates": [ 122.1426127, 18.4548176 ] } },
{ "type": "Feature", "properties": { "amenity": "fire_station", "name": "Bureau of Fire Protection" }, "geometry": { "type": "Point", "coordinates": [ 121.9969195, 18.2601193 ] } },
{ "type": "Feature", "properties": { "amenity": "fire_station", "name": "Day Care Center 1;San isidro sub fire station;health center" }, "geometry": { "type": "Point", "coordinates": [ 122.5458816, 10.7362318 ] } },
{ "type": "Feature", "properties": { "amenity": "fire_station", "name": "Hinundayan Municipal Fire Station" }, "geometry": { "type": "Point", "coordinates": [ 125.2552092, 10.3509585 ] } },
{ "type": "Feature", "properties": { "amenity": "fire_station", "name": null }, "geometry": { "type": "Point", "coordinates": [ 120.6006347, 22.355 ] } },
{ "type": "Feature", "properties": { "amenity": "fire_station", "name": "BFP Tublay Fire Station" }, "geometry": { "type": "Point", "coordinates": [ 120.6329878, 16.4750905 ] } },
{ "type": "Feature", "properties": { "amenity": "fire_station", "name": "62 Fire Station" }, "geometry": { "type": "Point", "coordinates": [ 121.0862021, 14.6039762 ] } },
{ "type": "Feature", "properties": { "amenity": "fire_station", "name": "San Jose Fire Station" }, "geometry": { "type": "Point", "coordinates": [ 121.9413018, 10.7479591 ] } },
{ "type": "Feature", "properties": { "amenity": "fire_station", "name": "Sibalom Fire Station" }, "geometry": { "type": "Point", "coordinates": [ 122.0176995, 10.7896799 ] } },
{ "type": "Feature", "properties": { "amenity": "fire_station", "name": "屏東縣政府消防局第三大隊東港分隊" }, "geometry": { "type": "Point", "coordinates": [ 120.4612812, 22.4632386 ] } },
{ "type": "Feature", "properties": { "amenity": "fire_station", "name": "Fire Station" }, "geometry": { "type": "Point", "coordinates": [ 125.0177567, 11.7098849 ] } },
{ "type": "Feature", "properties": { "amenity": "fire_station", "name": "PASUKAN BOMBA SUKARELA GUGUSAN FELDA SAHABAT" }, "geometry": { "type": "Point", "coordinates": [ 118.9119474, 5.0586291 ] } },
{ "type": "Feature", "properties": { "amenity": "fire_station", "name": "Bontoc Fire Station" }, "geometry": { "type": "Point", "coordinates": [ 124.9700771, 10.3560829 ] } },
{ "type": "Feature", "properties": { "amenity": "fire_station", "name": "Tacurong City Bureau of Fire" }, "geometry": { "type": "Point", "coordinates": [ 124.6755756, 6.6914441 ] } },
{ "type": "Feature", "properties": { "amenity": "fire_station", "name": "Tarangnan Fire Station" }, "geometry": { "type": "Point", "coordinates": [ 124.7459162, 11.902267 ] } },
{ "type": "Feature", "properties": { "amenity": "fire_station", "name": "Mambajao Fire Station" }, "geometry": { "type": "Point", "coordinates": [ 124.7260142, 9.2462678 ] } },
{ "type": "Feature", "properties": { "amenity": "fire_station", "name": "Arevalo Fire Station" }, "geometry": { "type": "Point", "coordinates": [ 122.5165489, 10.6878376 ] } },
{ "type": "Feature", "properties": { "amenity": "fire_station", "name": "Lamitan Fire Station" }, "geometry": { "type": "Point", "coordinates": [ 122.1353295, 6.6617589 ] } },
{ "type": "Feature", "properties": { "amenity": "fire_station", "name": "Sta. Maria Fire Station" }, "geometry": { "type": "Point", "coordinates": [ 122.0747057, 6.9310613 ] } },
{ "type": "Feature", "properties": { "amenity": "fire_station", "name": "Volunteer Fire Brigade" }, "geometry": { "type": "Point", "coordinates": [ 120.9851027, 14.6484299 ] } },
{ "type": "Feature", "properties": { "amenity": "fire_station", "name": null }, "geometry": { "type": "Point", "coordinates": [ 121.0302997, 14.5911345 ] } },
{ "type": "Feature", "properties": { "amenity": "fire_station", "name": null }, "geometry": { "type": "Point", "coordinates": [ 123.0941249, 8.5178379 ] } },
{ "type": "Feature", "properties": { "amenity": "fire_station", "name": "Moalboal Fire Station" }, "geometry": { "type": "Point", "coordinates": [ 123.3922259, 9.9355571 ] } },
{ "type": "Feature", "properties": { "amenity": "fire_station", "name": "Bayugan Fire Station" }, "geometry": { "type": "Point", "coordinates": [ 125.7519554, 8.7126488 ] } },
{ "type": "Feature", "properties": { "amenity": "fire_station", "name": "BFP" }, "geometry": { "type": "Point", "coordinates": [ 121.0590598, 14.4738214 ] } },
{ "type": "Feature", "properties": { "amenity": "fire_station", "name": "Fire Prone Residential" }, "geometry": { "type": "Point", "coordinates": [ 121.0588332, 14.4800354 ] } },
{ "type": "Feature", "properties": { "amenity": "fire_station", "name": "San Marcelino Fire Station" }, "geometry": { "type": "Point", "coordinates": [ 120.1553276, 14.974522 ] } },
{ "type": "Feature", "properties": { "amenity": "fire_station", "name": null }, "geometry": { "type": "Point", "coordinates": [ 123.7717502, 7.9198673 ] } },
{ "type": "Feature", "properties": { "amenity": "fire_station", "name": "Vallehermoso Fire Station" }, "geometry": { "type": "Point", "coordinates": [ 123.3261022, 10.3302712 ] } },
{ "type": "Feature", "properties": { "amenity": "fire_station", "name": "Guihulngan Fire Station" }, "geometry": { "type": "Point", "coordinates": [ 123.2729489, 10.1191514 ] } },
{ "type": "Feature", "properties": { "amenity": "fire_station", "name": "Hagonoy Barangay Fire Station" }, "geometry": { "type": "Point", "coordinates": [ 121.069849, 14.5128237 ] } },
{ "type": "Feature", "properties": { "amenity": "fire_station", "name": "Kapangan Fire Station" }, "geometry": { "type": "Point", "coordinates": [ 120.6058609, 16.5761066 ] } },
{ "type": "Feature", "properties": { "amenity": "fire_station", "name": "Pioduran Fire Station" }, "geometry": { "type": "Point", "coordinates": [ 123.4491253, 13.0295718 ] } },
{ "type": "Feature", "properties": { "amenity": "fire_station", "name": "Bambang Fire and Rescue" }, "geometry": { "type": "Point", "coordinates": [ 121.0820847, 14.5548472 ] } },
{ "type": "Feature", "properties": { "amenity": "fire_station", "name": "Pasig City Fire Boat" }, "geometry": { "type": "Point", "coordinates": [ 121.082018, 14.5540864 ] } },
{ "type": "Feature", "properties": { "amenity": "fire_station", "name": "San Joaquin Fire Station" }, "geometry": { "type": "Point", "coordinates": [ 121.0763157, 14.5510564 ] } },
{ "type": "Feature", "properties": { "amenity": "fire_station", "name": "San Jose Fire Brigade" }, "geometry": { "type": "Point", "coordinates": [ 121.0742671, 14.5612789 ] } },
{ "type": "Feature", "properties": { "amenity": "fire_station", "name": "Santa Cruz Fire Brigade" }, "geometry": { "type": "Point", "coordinates": [ 121.0789836, 14.5636036 ] } },
{ "type": "Feature", "properties": { "amenity": "fire_station", "name": null }, "geometry": { "type": "Point", "coordinates": [ 121.0940556, 14.5647588 ] } },
{ "type": "Feature", "properties": { "amenity": "fire_station", "name": "Palatiw BSF and Fire Brigade" }, "geometry": { "type": "Point", "coordinates": [ 121.0849519, 14.5630372 ] } },
{ "type": "Feature", "properties": { "amenity": "fire_station", "name": "Santolan Fire Station" }, "geometry": { "type": "Point", "coordinates": [ 121.0863534, 14.6163428 ] } },
{ "type": "Feature", "properties": { "amenity": "fire_station", "name": null }, "geometry": { "type": "Point", "coordinates": [ 125.0250716, 8.9116776 ] } },
{ "type": "Feature", "properties": { "amenity": "fire_station", "name": null }, "geometry": { "type": "Point", "coordinates": [ 121.0837338, 14.5902733 ] } },
{ "type": "Feature", "properties": { "amenity": "fire_station", "name": "Pinagbuhatan Fire and Rescue" }, "geometry": { "type": "Point", "coordinates": [ 121.0860705, 14.556039 ] } },
{ "type": "Feature", "properties": { "amenity": "fire_station", "name": "Barangka Ibaba Barangay Fire Station" }, "geometry": { "type": "Point", "coordinates": [ 121.0412827, 14.5715724 ] } },
{ "type": "Feature", "properties": { "amenity": "fire_station", "name": "Agno Fire Station" }, "geometry": { "type": "Point", "coordinates": [ 119.8021071, 16.1160205 ] } },
{ "type": "Feature", "properties": { "amenity": "fire_station", "name": "Lake Sebu Fire Station" }, "geometry": { "type": "Point", "coordinates": [ 124.7187109, 6.2341879 ] } },
{ "type": "Feature", "properties": { "amenity": "fire_station", "name": null }, "geometry": { "type": "Point", "coordinates": [ 114.931486, 4.9241006 ] } },
{ "type": "Feature", "properties": { "amenity": "fire_station", "name": null }, "geometry": { "type": "Point", "coordinates": [ 114.9362788, 4.8933668 ] } },
{ "type": "Feature", "properties": { "amenity": "fire_station", "name": "Sierra Bullones Fire Station" }, "geometry": { "type": "Point", "coordinates": [ 124.2932199, 9.8062699 ] } },
{ "type": "Feature", "properties": { "amenity": "fire_station", "name": "Las Navas Fire Station" }, "geometry": { "type": "Point", "coordinates": [ 125.0314341, 12.3380501 ] } },
{ "type": "Feature", "properties": { "amenity": "fire_station", "name": "Estancia Fire Station" }, "geometry": { "type": "Point", "coordinates": [ 123.1508788, 11.4568107 ] } },
{ "type": "Feature", "properties": { "amenity": "fire_station", "name": "Basay Fire Station" }, "geometry": { "type": "Point", "coordinates": [ 122.6406205, 9.4084342 ] } },
{ "type": "Feature", "properties": { "amenity": "fire_station", "name": "Siaton Fire Station" }, "geometry": { "type": "Point", "coordinates": [ 123.03348, 9.0613569 ] } },
{ "type": "Feature", "properties": { "amenity": "fire_station", "name": null }, "geometry": { "type": "Point", "coordinates": [ 123.1180178, 10.5657895 ] } },
{ "type": "Feature", "properties": { "amenity": "fire_station", "name": "Kananga Fire Station" }, "geometry": { "type": "Point", "coordinates": [ 124.5595771, 11.1832749 ] } },
{ "type": "Feature", "properties": { "amenity": "fire_station", "name": "Panglao Fire Station" }, "geometry": { "type": "Point", "coordinates": [ 123.7534162, 9.5803834 ] } },
{ "type": "Feature", "properties": { "amenity": "fire_station", "name": "New Washington Fire Station" }, "geometry": { "type": "Point", "coordinates": [ 122.4342296, 11.6483295 ] } },
{ "type": "Feature", "properties": { "amenity": "fire_station", "name": "Dolores Fire Station" }, "geometry": { "type": "Point", "coordinates": [ 124.9911824, 11.5874316 ] } },
{ "type": "Feature", "properties": { "amenity": "fire_station", "name": "Binalbagan Fire Station" }, "geometry": { "type": "Point", "coordinates": [ 122.8593257, 10.1943666 ] } },
{ "type": "Feature", "properties": { "amenity": "fire_station", "name": "Mabinay Fire Station" }, "geometry": { "type": "Point", "coordinates": [ 122.9259438, 9.7366764 ] } },
{ "type": "Feature", "properties": { "amenity": "fire_station", "name": null }, "geometry": { "type": "Point", "coordinates": [ 123.2243673, 9.4654221 ] } },
{ "type": "Feature", "properties": { "amenity": "fire_station", "name": "San Juan Fire Station" }, "geometry": { "type": "Point", "coordinates": [ 125.1736747, 10.2607561 ] } },
{ "type": "Feature", "properties": { "amenity": "fire_station", "name": "Dalaguete Fire Sub-station" }, "geometry": { "type": "Point", "coordinates": [ 123.53471, 9.7619194 ] } },
{ "type": "Feature", "properties": { "amenity": "fire_station", "name": "Loctugan Fire Station" }, "geometry": { "type": "Point", "coordinates": [ 122.7657848, 11.5132025 ] } },
{ "type": "Feature", "properties": { "amenity": "fire_station", "name": "Calceta Fire Sub-station" }, "geometry": { "type": "Point", "coordinates": [ 123.8643627, 9.6537319 ] } },
{ "type": "Feature", "properties": { "amenity": "fire_station", "name": "Bais City Fire Station" }, "geometry": { "type": "Point", "coordinates": [ 123.1174503, 9.5942106 ] } },
{ "type": "Feature", "properties": { "amenity": "fire_station", "name": "Mambusao Fire Station" }, "geometry": { "type": "Point", "coordinates": [ 122.5971763, 11.4283512 ] } },
{ "type": "Feature", "properties": { "amenity": "fire_station", "name": "Talibon Central Fire Station" }, "geometry": { "type": "Point", "coordinates": [ 123.8255856, 10.728906 ] } },
{ "type": "Feature", "properties": { "amenity": "fire_station", "name": null }, "geometry": { "type": "Point", "coordinates": [ 122.5941819, 10.7239434 ] } },
{ "type": "Feature", "properties": { "amenity": "fire_station", "name": "Toboso Fire Station" }, "geometry": { "type": "Point", "coordinates": [ 123.5153425, 10.7150624 ] } },
{ "type": "Feature", "properties": { "amenity": "fire_station", "name": "Capul Fire Station" }, "geometry": { "type": "Point", "coordinates": [ 124.1825792, 12.4227576 ] } },
{ "type": "Feature", "properties": { "amenity": "fire_station", "name": "Dalaguete Fire Sub-station" }, "geometry": { "type": "Point", "coordinates": [ 123.5346758, 9.7619538 ] } },
{ "type": "Feature", "properties": { "amenity": "fire_station", "name": null }, "geometry": { "type": "Point", "coordinates": [ 124.8762122, 12.5398351 ] } },
{ "type": "Feature", "properties": { "amenity": "fire_station", "name": "Dumanjug Fire Station" }, "geometry": { "type": "Point", "coordinates": [ 123.4358311, 10.0588373 ] } },
{ "type": "Feature", "properties": { "amenity": "fire_station", "name": "Clarin Fire Station" }, "geometry": { "type": "Point", "coordinates": [ 124.0232572, 9.9628517 ] } },
{ "type": "Feature", "properties": { "amenity": "fire_station", "name": "Culab-og Fire Station" }, "geometry": { "type": "Point", "coordinates": [ 122.5874784, 10.6994643 ] } },
{ "type": "Feature", "properties": { "amenity": "fire_station", "name": "Escalante Fire Station" }, "geometry": { "type": "Point", "coordinates": [ 123.4928593, 10.833741 ] } },
{ "type": "Feature", "properties": { "amenity": "fire_station", "name": "Loay Fire Station" }, "geometry": { "type": "Point", "coordinates": [ 124.0256963, 9.5956861 ] } },
{ "type": "Feature", "properties": { "amenity": "fire_station", "name": "Himamaylan Fire Station" }, "geometry": { "type": "Point", "coordinates": [ 124.4748219, 11.4656554 ] } },
{ "type": "Feature", "properties": { "amenity": "fire_station", "name": "Ilog Fire Station" }, "geometry": { "type": "Point", "coordinates": [ 122.7696079, 10.0244922 ] } },
{ "type": "Feature", "properties": { "amenity": "fire_station", "name": "La Castellana Fire Station" }, "geometry": { "type": "Point", "coordinates": [ 123.0180576, 10.3235229 ] } },
{ "type": "Feature", "properties": { "amenity": "fire_station", "name": "La Castellana Fire Station" }, "geometry": { "type": "Point", "coordinates": [ 123.0182189, 10.3236902 ] } },
{ "type": "Feature", "properties": { "amenity": "fire_station", "name": "Mandurriao Fire Sub-station" }, "geometry": { "type": "Point", "coordinates": [ 122.536355, 10.7166647 ] } },
{ "type": "Feature", "properties": { "amenity": "fire_station", "name": "Culab-og Fire Station" }, "geometry": { "type": "Point", "coordinates": [ 124.2828481, 12.5004764 ] } },
{ "type": "Feature", "properties": { "amenity": "fire_station", "name": "Lapu-lapu City Fire District Station 3" }, "geometry": { "type": "Point", "coordinates": [ 123.9589605, 10.3052591 ] } },
{ "type": "Feature", "properties": { "amenity": "fire_station", "name": "Batad Fire Station" }, "geometry": { "type": "Point", "coordinates": [ 123.110269, 11.4177869 ] } },
{ "type": "Feature", "properties": { "amenity": "fire_station", "name": "Dueñas Fire Station" }, "geometry": { "type": "Point", "coordinates": [ 122.6178646, 11.0593167 ] } },
{ "type": "Feature", "properties": { "amenity": "fire_station", "name": "Toboso Fire Station" }, "geometry": { "type": "Point", "coordinates": [ 123.1102726, 11.417804 ] } },
{ "type": "Feature", "properties": { "amenity": "fire_station", "name": "San Ricardo Fire Station" }, "geometry": { "type": "Point", "coordinates": [ 125.2767786, 9.9126794 ] } },
{ "type": "Feature", "properties": { "amenity": "fire_station", "name": "Basey Fire Station" }, "geometry": { "type": "Point", "coordinates": [ 125.0694037, 11.2805673 ] } },
{ "type": "Feature", "properties": { "amenity": "fire_station", "name": "Valderrama Fire Station" }, "geometry": { "type": "Point", "coordinates": [ 122.1296409, 11.0032887 ] } },
{ "type": "Feature", "properties": { "amenity": "fire_station", "name": "Passi Fire Station" }, "geometry": { "type": "Point", "coordinates": [ 122.6415823, 11.1046513 ] } },
{ "type": "Feature", "properties": { "amenity": "fire_station", "name": "Santa Catalina Fire Station" }, "geometry": { "type": "Point", "coordinates": [ 122.8623143, 9.333989 ] } },
{ "type": "Feature", "properties": { "amenity": "fire_station", "name": "Bien Unido Fire Station" }, "geometry": { "type": "Point", "coordinates": [ 124.3769968, 10.1406102 ] } },
{ "type": "Feature", "properties": { "amenity": "fire_station", "name": "Sigma Fire Station" }, "geometry": { "type": "Point", "coordinates": [ 122.6654976, 11.4229162 ] } },
{ "type": "Feature", "properties": { "amenity": "fire_station", "name": "Bingawan Fire Station" }, "geometry": { "type": "Point", "coordinates": [ 122.5676114, 11.2333113 ] } },
{ "type": "Feature", "properties": { "amenity": "fire_station", "name": "Barugo Fire Station" }, "geometry": { "type": "Point", "coordinates": [ 124.7368741, 11.3260037 ] } },
{ "type": "Feature", "properties": { "amenity": "fire_station", "name": "Enrique Magalona Fire Station" }, "geometry": { "type": "Point", "coordinates": [ 122.9777989, 10.8786705 ] } },
{ "type": "Feature", "properties": { "amenity": "fire_station", "name": "Kawit Fire Station" }, "geometry": { "type": "Point", "coordinates": [ 123.9455929, 11.1850446 ] } },
{ "type": "Feature", "properties": { "amenity": "fire_station", "name": "Himamaylan Fire Station" }, "geometry": { "type": "Point", "coordinates": [ 122.8669596, 10.0861717 ] } },
{ "type": "Feature", "properties": { "amenity": "fire_station", "name": "Talibon Central Fire Station" }, "geometry": { "type": "Point", "coordinates": [ 124.3208591, 10.141345 ] } },
{ "type": "Feature", "properties": { "amenity": "fire_station", "name": "Zarraga Fire Station" }, "geometry": { "type": "Point", "coordinates": [ 122.6085404, 10.822423 ] } },
{ "type": "Feature", "properties": { "amenity": "fire_station", "name": "Carigara Fire Station" }, "geometry": { "type": "Point", "coordinates": [ 124.6856627, 11.3025933 ] } },
{ "type": "Feature", "properties": { "amenity": "fire_station", "name": "Gamay Fire Station" }, "geometry": { "type": "Point", "coordinates": [ 125.2990293, 12.3846842 ] } },
{ "type": "Feature", "properties": { "amenity": "fire_station", "name": "Sapian Fire Station" }, "geometry": { "type": "Point", "coordinates": [ 122.6050866, 11.4942821 ] } },
{ "type": "Feature", "properties": { "amenity": "fire_station", "name": "Canlaon Fire Station" }, "geometry": { "type": "Point", "coordinates": [ 123.2138783, 10.3841356 ] } },
{ "type": "Feature", "properties": { "amenity": "fire_station", "name": "Borbon Fire Station" }, "geometry": { "type": "Point", "coordinates": [ 124.030847, 10.8376672 ] } },
{ "type": "Feature", "properties": { "amenity": "fire_station", "name": null }, "geometry": { "type": "Point", "coordinates": [ 122.9591198, 10.6692131 ] } },
{ "type": "Feature", "properties": { "amenity": "fire_station", "name": null }, "geometry": { "type": "Point", "coordinates": [ 122.597099, 10.8791767 ] } },
{ "type": "Feature", "properties": { "amenity": "fire_station", "name": "Banate Fire Station" }, "geometry": { "type": "Point", "coordinates": [ 122.8173968, 11.0009954 ] } },
{ "type": "Feature", "properties": { "amenity": "fire_station", "name": "San Isidro Fire Station" }, "geometry": { "type": "Point", "coordinates": [ 124.3309851, 12.3855545 ] } },
{ "type": "Feature", "properties": { "amenity": "fire_station", "name": "Calape Fire Station" }, "geometry": { "type": "Point", "coordinates": [ 123.8808861, 9.8938233 ] } },
{ "type": "Feature", "properties": { "amenity": "fire_station", "name": "Lambunao Fire Station" }, "geometry": { "type": "Point", "coordinates": [ 122.475011, 11.0544495 ] } },
{ "type": "Feature", "properties": { "amenity": "fire_station", "name": "Bugasong Fire Station" }, "geometry": { "type": "Point", "coordinates": [ 122.064347, 11.0437417 ] } },
{ "type": "Feature", "properties": { "amenity": "fire_station", "name": "Mondragon Fire Station" }, "geometry": { "type": "Point", "coordinates": [ 124.7512364, 12.5174784 ] } },
{ "type": "Feature", "properties": { "amenity": "fire_station", "name": "Paranas Fire Station" }, "geometry": { "type": "Point", "coordinates": [ 125.0205309, 11.7702101 ] } },
{ "type": "Feature", "properties": { "amenity": "fire_station", "name": "amenity=fire_station name=Kabankalan City Fire Station source=data.gov.ph;Bureau of Fire Protection" }, "geometry": { "type": "Point", "coordinates": [ 122.8125207, 9.9952065 ] } },
{ "type": "Feature", "properties": { "amenity": "fire_station", "name": "Sogod Fire Station" }, "geometry": { "type": "Point", "coordinates": [ 124.0042796, 10.7527975 ] } },
{ "type": "Feature", "properties": { "amenity": "fire_station", "name": "Dao fire station" }, "geometry": { "type": "Point", "coordinates": [ 122.7675977, 11.4637688 ] } },
{ "type": "Feature", "properties": { "amenity": "fire_station", "name": null }, "geometry": { "type": "Point", "coordinates": [ 122.5876956, 10.6072181 ] } },
{ "type": "Feature", "properties": { "amenity": "fire_station", "name": "Calape Fire Station" }, "geometry": { "type": "Point", "coordinates": [ 122.590666, 10.5980023 ] } },
{ "type": "Feature", "properties": { "amenity": "fire_station", "name": "Pontevedra Fire Station" }, "geometry": { "type": "Point", "coordinates": [ 122.8658536, 10.3761705 ] } },
{ "type": "Feature", "properties": { "amenity": "fire_station", "name": "Tagbac Fire Sub-station" }, "geometry": { "type": "Point", "coordinates": [ 122.5799677, 10.7648787 ] } },
{ "type": "Feature", "properties": { "amenity": "fire_station", "name": null }, "geometry": { "type": "Point", "coordinates": [ 125.2125112, 11.10766 ] } },
{ "type": "Feature", "properties": { "amenity": "fire_station", "name": null }, "geometry": { "type": "Point", "coordinates": [ 122.5378871, 11.2607767 ] } },
{ "type": "Feature", "properties": { "amenity": "fire_station", "name": "Dumaguete Fire Station" }, "geometry": { "type": "Point", "coordinates": [ 123.3096952, 9.3048908 ] } },
{ "type": "Feature", "properties": { "amenity": "fire_station", "name": "Rotary Club of Pinamalayan Central" }, "geometry": { "type": "Point", "coordinates": [ 121.4722097, 13.042776 ] } },
{ "type": "Feature", "properties": { "amenity": "fire_station", "name": "Guiuan Fire Station" }, "geometry": { "type": "Point", "coordinates": [ 122.5828944, 10.9347477 ] } },
{ "type": "Feature", "properties": { "amenity": "fire_station", "name": "Hinigaran Fire Station" }, "geometry": { "type": "Point", "coordinates": [ 122.853048, 10.270459 ] } },
{ "type": "Feature", "properties": { "amenity": "fire_station", "name": "San Antonio Fire Station" }, "geometry": { "type": "Point", "coordinates": [ 124.27894, 12.413398 ] } },
{ "type": "Feature", "properties": { "amenity": "fire_station", "name": "Moises Padilla Fire Station" }, "geometry": { "type": "Point", "coordinates": [ 123.0746422, 10.2702 ] } },
{ "type": "Feature", "properties": { "amenity": "fire_station", "name": "Lavezares Fire Station" }, "geometry": { "type": "Point", "coordinates": [ 124.3309075, 12.5347858 ] } },
{ "type": "Feature", "properties": { "amenity": "fire_station", "name": "Alegria Fire Station" }, "geometry": { "type": "Point", "coordinates": [ 123.3401306, 9.7293166 ] } },
{ "type": "Feature", "properties": { "amenity": "fire_station", "name": "Roxas Fire Station" }, "geometry": { "type": "Point", "coordinates": [ 121.5175974, 12.5910385 ] } },
{ "type": "Feature", "properties": { "amenity": "fire_station", "name": "Lemery Fire Station" }, "geometry": { "type": "Point", "coordinates": [ 120.9136767, 13.8838758 ] } },
{ "type": "Feature", "properties": { "amenity": "fire_station", "name": "Taal Fire Station" }, "geometry": { "type": "Point", "coordinates": [ 120.9175894, 13.8780222 ] } },
{ "type": "Feature", "properties": { "amenity": "fire_station", "name": "Malaybalay Fire Station" }, "geometry": { "type": "Point", "coordinates": [ 125.126445, 8.1577773 ] } },
{ "type": "Feature", "properties": { "amenity": "fire_station", "name": null }, "geometry": { "type": "Point", "coordinates": [ 120.9783272, 13.8684682 ] } },
{ "type": "Feature", "properties": { "amenity": "fire_station", "name": "宝安区森林消防大队" }, "geometry": { "type": "Point", "coordinates": [ 113.8672537, 22.8299788 ] } },
{ "type": "Feature", "properties": { "amenity": "fire_station", "name": "San Ildefonso Fire Station" }, "geometry": { "type": "Point", "coordinates": [ 120.3986423, 17.6259133 ] } },
{ "type": "Feature", "properties": { "amenity": "fire_station", "name": "长兴消防站" }, "geometry": { "type": "Point", "coordinates": [ 114.239223, 22.7303282 ] } },
{ "type": "Feature", "properties": { "amenity": "fire_station", "name": "Magpet Fire Station" }, "geometry": { "type": "Point", "coordinates": [ 125.1146659, 7.1027952 ] } },
{ "type": "Feature", "properties": { "amenity": "fire_station", "name": "Pasig Alliance" }, "geometry": { "type": "Point", "coordinates": [ 121.0694405, 14.5679789 ] } },
{ "type": "Feature", "properties": { "amenity": "fire_station", "name": "Minglanilla Fire Station" }, "geometry": { "type": "Point", "coordinates": [ 123.7960375, 10.2442569 ] } },
{ "type": "Feature", "properties": { "amenity": "fire_station", "name": "Novaliches fire station" }, "geometry": { "type": "Point", "coordinates": [ 121.0354777, 14.7212874 ] } },
{ "type": "Feature", "properties": { "amenity": "fire_station", "name": "Doña Ata Fire Sub-station" }, "geometry": { "type": "Point", "coordinates": [ 120.9845386, 14.6774363 ] } },
{ "type": "Feature", "properties": { "amenity": "fire_station", "name": "Sta Maria tennis club" }, "geometry": { "type": "Point", "coordinates": [ 120.4715773, 16.0271004 ] } },
{ "type": "Feature", "properties": { "amenity": "fire_station", "name": "Bamboo Organ Fire Sub-station" }, "geometry": { "type": "Point", "coordinates": [ 120.9815231, 14.4807227 ] } },
{ "type": "Feature", "properties": { "amenity": "fire_station", "name": "Dapa Central Fire Station" }, "geometry": { "type": "Point", "coordinates": [ 126.0526729, 9.7570853 ] } },
{ "type": "Feature", "properties": { "amenity": "fire_station", "name": "Holy Spirit Barangay Fire Station" }, "geometry": { "type": "Point", "coordinates": [ 121.0767342, 14.6842761 ] } },
{ "type": "Feature", "properties": { "amenity": "fire_station", "name": "Binmaley Fire Station" }, "geometry": { "type": "Point", "coordinates": [ 120.2696201, 16.0282617 ] } },
{ "type": "Feature", "properties": { "amenity": "fire_station", "name": "Laguindingan Fire Station" }, "geometry": { "type": "Point", "coordinates": [ 124.4358716, 8.5696672 ] } },
{ "type": "Feature", "properties": { "amenity": "fire_station", "name": "Baracom Central Fire & Rescue Volunteer" }, "geometry": { "type": "Point", "coordinates": [ 120.9866384, 14.625949 ] } },
{ "type": "Feature", "properties": { "amenity": "fire_station", "name": "BF International Barangay Fire Station" }, "geometry": { "type": "Point", "coordinates": [ 120.9948188, 14.4574984 ] } },
{ "type": "Feature", "properties": { "amenity": "fire_station", "name": "Balai Bomba Dan Penyelamat Kunak" }, "geometry": { "type": "Point", "coordinates": [ 118.2458214, 4.6856127 ] } },
{ "type": "Feature", "properties": { "amenity": "fire_station", "name": "Tboli fire station" }, "geometry": { "type": "Point", "coordinates": [ 124.8254857, 6.2116577 ] } },
{ "type": "Feature", "properties": { "amenity": "fire_station", "name": "Santa Margarita Fire Station" }, "geometry": { "type": "Point", "coordinates": [ 124.6587646, 12.0378138 ] } },
{ "type": "Feature", "properties": { "amenity": "fire_station", "name": "Santa Ana Fire Station" }, "geometry": { "type": "Point", "coordinates": [ 120.7630612, 15.0845458 ] } },
{ "type": "Feature", "properties": { "amenity": "fire_station", "name": "Porac Fire Station" }, "geometry": { "type": "Point", "coordinates": [ 120.5409797, 15.0734729 ] } },
{ "type": "Feature", "properties": { "amenity": "fire_station", "name": "San Simon Fire Station" }, "geometry": { "type": "Point", "coordinates": [ 120.7502858, 14.9841951 ] } },
{ "type": "Feature", "properties": { "amenity": "fire_station", "name": "Dingle Fire Station" }, "geometry": { "type": "Point", "coordinates": [ 122.6697931, 11.0000914 ] } },
{ "type": "Feature", "properties": { "amenity": "fire_station", "name": "Jimalalud Fire Station" }, "geometry": { "type": "Point", "coordinates": [ 123.2009947, 9.9787027 ] } },
{ "type": "Feature", "properties": { "amenity": "fire_station", "name": "Enrique Villanueva Fire Station" }, "geometry": { "type": "Point", "coordinates": [ 123.64388, 9.2795568 ] } },
{ "type": "Feature", "properties": { "amenity": "fire_station", "name": "ARTECHE FIRE STATION" }, "geometry": { "type": "Point", "coordinates": [ 125.3720008, 12.2721105 ] } },
{ "type": "Feature", "properties": { "amenity": "fire_station", "name": "Padre Garcia Fire Department" }, "geometry": { "type": "Point", "coordinates": [ 121.2131168, 13.8799661 ] } },
{ "type": "Feature", "properties": { "amenity": "fire_station", "name": "Knighthawk Rescue Team" }, "geometry": { "type": "Point", "coordinates": [ 125.591004, 7.0624756 ] } },
{ "type": "Feature", "properties": { "amenity": "fire_station", "name": "Brooke's Point Fire Station" }, "geometry": { "type": "Point", "coordinates": [ 117.8366094, 8.7714927 ] } },
{ "type": "Feature", "properties": { "amenity": "fire_station", "name": "Santa Rita Fire Station" }, "geometry": { "type": "Point", "coordinates": [ 120.617385, 15.0008478 ] } },
{ "type": "Feature", "properties": { "amenity": "fire_station", "name": "Dumarao Fire Station" }, "geometry": { "type": "Point", "coordinates": [ 122.6784091, 11.2620136 ] } },
{ "type": "Feature", "properties": { "amenity": "fire_station", "name": "Dumarao Fire Station" }, "geometry": { "type": "Point", "coordinates": [ 122.6783066, 11.2620296 ] } },
{ "type": "Feature", "properties": { "amenity": "fire_station", "name": "Dumarao Fire Station" }, "geometry": { "type": "Point", "coordinates": [ 122.6783066, 11.2620296 ] } },
{ "type": "Feature", "properties": { "amenity": "fire_station", "name": "San Miguel Fire & Rescue Base" }, "geometry": { "type": "Point", "coordinates": [ 121.0856387, 14.5654906 ] } },
{ "type": "Feature", "properties": { "amenity": "fire_station", "name": "BUREAU OF FIRE PROTECTION" }, "geometry": { "type": "Point", "coordinates": [ 117.9975092, 9.2380799 ] } },
{ "type": "Feature", "properties": { "amenity": "fire_station", "name": "Candaba Fire Station" }, "geometry": { "type": "Point", "coordinates": [ 120.8281316, 15.0924705 ] } },
{ "type": "Feature", "properties": { "amenity": "fire_station", "name": "IVC Station" }, "geometry": { "type": "Point", "coordinates": [ 121.0800521, 14.627292 ] } },
{ "type": "Feature", "properties": { "amenity": "fire_station", "name": "Lucena Integrated Filipino-Chinese Fire Brigade Incorporated" }, "geometry": { "type": "Point", "coordinates": [ 121.612034, 13.9342117 ] } },
{ "type": "Feature", "properties": { "amenity": "fire_station", "name": "Pagbilao Fire Station" }, "geometry": { "type": "Point", "coordinates": [ 121.6872311, 13.9716529 ] } },
{ "type": "Feature", "properties": { "amenity": "fire_station", "name": "Agdangan Fire Station" }, "geometry": { "type": "Point", "coordinates": [ 121.9122818, 13.8763127 ] } },
{ "type": "Feature", "properties": { "amenity": "fire_station", "name": "Mulanay Fire Station" }, "geometry": { "type": "Point", "coordinates": [ 122.4031502, 13.5232229 ] } },
{ "type": "Feature", "properties": { "amenity": "fire_station", "name": "Gumaca Fire Station" }, "geometry": { "type": "Point", "coordinates": [ 122.098234, 13.9209775 ] } },
{ "type": "Feature", "properties": { "amenity": "fire_station", "name": "Atimonan Fire Station" }, "geometry": { "type": "Point", "coordinates": [ 121.9258699, 14.0019846 ] } },
{ "type": "Feature", "properties": { "amenity": "fire_station", "name": "Macalelon Fire Station" }, "geometry": { "type": "Point", "coordinates": [ 122.1381667, 13.7475036 ] } },
{ "type": "Feature", "properties": { "amenity": "fire_station", "name": "Padre Burgos Fire Station" }, "geometry": { "type": "Point", "coordinates": [ 121.8144107, 13.9159294 ] } },
{ "type": "Feature", "properties": { "amenity": "fire_station", "name": "Pitogo Fire Station" }, "geometry": { "type": "Point", "coordinates": [ 122.0881516, 13.7829079 ] } },
{ "type": "Feature", "properties": { "amenity": "fire_station", "name": "Buenavista Fire Station" }, "geometry": { "type": "Point", "coordinates": [ 122.4652648, 13.7332804 ] } },
{ "type": "Feature", "properties": { "amenity": "fire_station", "name": "Guinayangan Fire Station" }, "geometry": { "type": "Point", "coordinates": [ 122.4546701, 13.8971679 ] } },
{ "type": "Feature", "properties": { "amenity": "fire_station", "name": "Plaridel Fire Station" }, "geometry": { "type": "Point", "coordinates": [ 122.0117368, 13.9587124 ] } },
{ "type": "Feature", "properties": { "amenity": "fire_station", "name": "San Andres Fire Station" }, "geometry": { "type": "Point", "coordinates": [ 122.6750752, 13.3217761 ] } },
{ "type": "Feature", "properties": { "amenity": "fire_station", "name": "San Narciso Fire Station" }, "geometry": { "type": "Point", "coordinates": [ 122.5667837, 13.5643581 ] } },
{ "type": "Feature", "properties": { "amenity": "fire_station", "name": "Alabat Fire Station" }, "geometry": { "type": "Point", "coordinates": [ 122.0209944, 14.1063398 ] } },
{ "type": "Feature", "properties": { "amenity": "fire_station", "name": "Quezon Fire Station" }, "geometry": { "type": "Point", "coordinates": [ 122.1823387, 14.0064921 ] } },
{ "type": "Feature", "properties": { "amenity": "fire_station", "name": "Lucena City St. Michael Fire Sub-Station" }, "geometry": { "type": "Point", "coordinates": [ 121.6043884, 13.9579823 ] } },
{ "type": "Feature", "properties": { "amenity": "fire_station", "name": "Labangon Station" }, "geometry": { "type": "Point", "coordinates": [ 123.8811828, 10.2991016 ] } },
{ "type": "Feature", "properties": { "amenity": "fire_station", "name": "Aurora Hill Fire Station" }, "geometry": { "type": "Point", "coordinates": [ 120.6062908, 16.4262717 ] } },
{ "type": "Feature", "properties": { "amenity": "fire_station", "name": "Lawang Bato Fire Station" }, "geometry": { "type": "Point", "coordinates": [ 120.9940356, 14.7303498 ] } },
{ "type": "Feature", "properties": { "amenity": "fire_station", "name": "Caybiga Fire Sub-station" }, "geometry": { "type": "Point", "coordinates": [ 121.0071355, 14.7190524 ] } },
{ "type": "Feature", "properties": { "amenity": "fire_station", "name": "BUREAU OF FIRE PROTECTION JONES ISABELA" }, "geometry": { "type": "Point", "coordinates": [ 121.7022499, 16.5622265 ] } },
{ "type": "Feature", "properties": { "amenity": "fire_station", "name": "Urdaneta City Fire Station" }, "geometry": { "type": "Point", "coordinates": [ 120.5649276, 15.9753976 ] } },
{ "type": "Feature", "properties": { "amenity": "fire_station", "name": "Talugtug Fire Station" }, "geometry": { "type": "Point", "coordinates": [ 120.8073571, 15.7782878 ] } },
{ "type": "Feature", "properties": { "amenity": "fire_station", "name": "Bureau of Fire Protection" }, "geometry": { "type": "Point", "coordinates": [ 120.598097, 15.4707812 ] } },
{ "type": "Feature", "properties": { "amenity": "fire_station", "name": "Paglat Fire Station" }, "geometry": { "type": "Point", "coordinates": [ 124.7847466, 6.7807498 ] } },
{ "type": "Feature", "properties": { "amenity": "fire_station", "name": "Banna Fire Station" }, "geometry": { "type": "Point", "coordinates": [ 120.6545128, 17.9808137 ] } },
{ "type": "Feature", "properties": { "amenity": "fire_station", "name": "552ND AOS" }, "geometry": { "type": "Point", "coordinates": [ 121.1283175, 13.9529148 ] } },
{ "type": "Feature", "properties": { "amenity": "fire_station", "name": "Fortune Fire Brigade" }, "geometry": { "type": "Point", "coordinates": [ 121.127792, 14.6632734 ] } }
]
}
